name,latitude,longitude,dermoscopie,adresse,ville,code_postal,phone,email,description
Pharmacie AnthÃ©a ðŸ’Š Totum,43.590615,7.116664,non,,,,,,
PHARMACIE DE LA MADELEINE,48.7613037,0.6395385,non,,,,,,
ðŸ’Š Pharmacie Avicenne (Etoile),48.9106558,2.427182,non,,,,,,
Pharmacie Martin-Pinel (Hello Pharmacie),45.751066,5.173571,non,,,,,,
PHARMACIE FLIPPE,50.273715,2.7577387,non,,,,,,
Pharmacie Des Fontenelles,48.6680572,-1.9795262,non,,,,,,
Pharmacie de la Colle ðŸ’Š Totum,43.684298,7.1086059,non,,,,,,
Pharmacie GrandclÃ©ment / Hello Pharmacie Villeurbanne,45.7593621,4.8908583,non,,,,,,
Grande Pharmacie de Saint Chamond - Hello Pharmacie,45.475287,4.5087404,non,,,,,,
Pharmacie Calissi (La RouguiÃ¨re),43.2965302,5.4573689,non,,,,,,
Pharmacie Mola,43.342053,6.6922465,non,,,,,,
ðŸ’Š Pharmacie de Monestier / Hellopharmacie,44.9211972,5.6368286,non,,,,,,
Grande Pharmacie de Montplaisir Hellopharmacie,45.434648,4.4172843,non,,,,,,
Grande Pharmacie Des Salines - HelloPharmacie,46.6741325,5.5389524,non,,,,,,
Grande Pharmacie De Saint Rambert,45.500038,4.240008,non,,,,,,
Pharmacie de Dagneux,45.8510885,5.0767676,non,,,,,,
Pharmacie de lâ€™Esplanade,48.9330331,2.3551738,non,,,,,,
HelloPharmacie Villefranche,45.9864427,4.7180703,non,,,,,,
Pharmacie de l'Esplanade,43.6556296,3.8812007,non,,,,,,
Pharmacie de L'Arsenal,45.7105732,4.8609179,non,,,,,,
Pharmacie Du Parc well&well,48.8121617,7.7847369,non,,,,,,
Grande Pharmacie de Bellegarde (Hello Pharmacie),46.1059088,5.8217241,non,,,,,,
Grande Pharmacie de Livron - Hello Pharmacie,44.7775132,4.8315452,non,,,,,,
Pharmacie Dournel Fabienne,50.7178173,3.1443394,non,,,,,,
Pharmacie des Plaines ðŸ’Š Totum,43.4214162,6.7822786,non,,,,,,
Pharmacie Des Verts Coteaux,48.7683233,2.2522004,non,,,,,,
Ma Pharmacie ðŸ’Š Totum,43.175244,5.828836,non,,,,,,
Pharmacie de Piriac,47.3791838,-2.546495,non,,,,,,
Pharmacie Terraillon (Hello Pharmacie),45.7434502,4.9198854,non,,,,,,
Pharmacie Place Fontanges,44.3536212,2.0321867,non,,,,,,
PHARMACIE DES ARTS HELLOPHARMACIE,45.1889479,5.7056554,non,,,,,,
Pharmacie de la Sambuy - Hello Pharmacie Faverges,45.7455634,6.2942788,non,,,,,,
Grande Pharmacie de la Gare (Hello Pharmacie),45.244583,4.6744949,non,,,,,,
ðŸ’Š Hello Pharmacie Pierre-BÃ©nite Sud,45.6964638,4.8251132,non,,,,,,
PHARMACIE CENTRALE - HELLO PHARMACIE,45.9728598,4.3323219,non,,,,,,
Pharmacie du Mont Signon,44.9856481,4.2257479,non,,,,,,
Pharmacie Saint Michel / HELLO PHARMACIE,45.5891653,5.2784027,non,,,,,,
Pharmacie des vallins,43.4495862,4.936738,non,,,,,,
Pharmacie des Forges,49.991205,4.101169,non,,,,,,
PHARMACIE L'ESPÃ‰RANCE,48.6773033,-1.02186,non,,,,,,
Pharmacie de la Voulte,44.8068372,4.791271,non,,,,,,
Pharmacie Pharmavance Beaubourg,48.8627616,2.3544693,non,,,,,,
PHARMACIE EVRARD,49.2556629,5.9456451,non,,,,,,
Pharmacie Du Grand Sully,47.766103,2.374349,non,,,,,,
PHARMACIE COLIN - FONTAINE LA GUYON,48.4745272,1.3213104,non,,,,,,
Pharmacie du Bourg,48.0132158,2.7304138,non,,,,,,
La Grande Pharmacie du 15,48.8444413,2.2838553,non,,,,,,
ðŸ’Š PHARMACIE DE LA PLACE,43.4610827,6.480783,non,,,,,,
Hello Pharmacie de Charavines,45.4335551,5.5145048,non,,,,,,
Pharmacie Du Vieux Doulon,47.2341931,-1.504841,non,,,,,,
Pharmacie BoissiÃ¨re Hippodrome,47.2517173,-1.5670007,non,,,,,,
ðŸ’Š PHARMACIE DU CLOS DE LA FONTAINE I Les SoriniÃ¨res 44,47.1506201,-1.5336698,non,,,,,,
Pharmacie du Russey,47.1583867,6.7209133,non,,,,,,
Pharmacie de Villaroy,48.7667692,2.0787086,non,,,,,,
PHARMACIE LPPN,48.8912833,2.1925204,non,,,,,,
Pharmacie de Dhuizon,47.5883418,1.6584333,non,,,,,,
Pharmacie D'Ornano,44.8342219,-0.5886062,non,,,,,,
Pharmacie Foulon,48.4218136,3.920018,non,,,,,,
Pharmacie de Lherm,43.4293525,1.2214907,non,,,,,,
PHARMACIE DES ECOLES DE COUÃ‹RON / MATHEVET SALAS,47.2139587,-1.7245515,non,,,,,,
ðŸ’Š PHARMACIE PRINCIPALE l Kremlin-BicÃªtre 94,48.813256,2.361099,non,,,,,,
Pharmacie Cantonale,48.6602127,7.6055487,non,,,,,,
PHARMACIE DE LA BEAUJOIRE,47.2592128,-1.5193749,non,,,,,,
Pharmacie Essars Catherine Desailly,50.5486018,2.6631107,non,,,,,,
Pharmacie du ChÃ¢teau ðŸ’Š Totum,45.820605,-0.782974,non,,,,,,
PHARMACIE HAY,48.0703362,2.0540758,non,,,,,,
Pharmacie de Beaugency,47.2035483,-1.4910036,non,,,,,,
Pharmacie De La CollÃ©giale,47.8110896,7.1022984,non,,,,,,
PHARMACIE NOTRE DAME,49.4872357,0.1071891,non,,,,,,
PHARMACIE LACHOR,50.5406903,2.6091869,non,,,,,,
PHARMACIE DE POUILLEY LES VIGNES,47.254743,5.9369671,non,,,,,,
PHARMACIE DANG,48.8374377,2.3912424,non,,,,,,
La Pharmacie du Donjon,49.4699588,-1.6336462,non,,,,,,
Pharmacie Colbert,47.9030711,3.6002451,non,,,,,,
Pharmacie Lemanissier,48.7645503,0.6243549,non,,,,,,
GRANDE PHARMACIE DU PROGRES,46.8391432,-0.493108,non,,,,,,
Pharmacie des Vignes,47.1607556,-1.2652944,non,,,,,,
Pharmacie LÃ©au Gadier,47.8665444,2.1217207,non,,,,,,
Pharmacie Viv'Erdre - Hyper U,47.2849837,-1.5529515,non,,,,,,
Pharmacie Saint Michel,43.8655715,1.5041664,non,,,,,,
Pharmacie de l'Aguado (Selarl),48.6334773,2.4430739,non,,,,,,
PHARMACIE DE TREVIGNON,47.807372,-3.8389432,non,,,,,,
PHARMACIE BARBIN - REDON,47.6484523,-2.0879881,non,,,,,,
Pharmacie de la Bernerie,47.0794673,-2.0361596,non,,,,,,
PHARMACIE DU BOULEVARD DE STRASBOURG,47.4568793,-0.5541468,non,,,,,,
Pharmacie Pierre Et Bassetti,47.0551864,6.6058842,non,,,,,,
PHARMACIE DE BEAUNE LA ROLANDE,48.0647881,2.4208029,non,,,,,,
43 Rue Pierre Vernier,47.1059769,6.1477626,non,,,,,,
Pharmacie de la Victoire,47.3847599,-1.0284411,non,,,,,,
PHARMACIE DES MAUGES / MATERIEL MEDICAL/ ORTHOPEDIE,47.3553734,-1.0147012,non,,,,,,
Pharmacie Jaune des 3 moulins,48.820239,2.251711,non,,,,,,
Pharmacie De La Place,48.0373213,2.3823912,non,,,,,,
PHARMACIE DES COTEAUX DU BEARN,43.5588377,-0.2732303,non,,,,,,
PHARMACIE DES ARGOULETS,43.622951,1.4727098,non,,,,,,
PHARMACIE DE L'AISNE,49.9483643,3.4146096,non,,,,,,
PHARMACIE DES GABARES - VERTOU,47.1728691,-1.4759485,non,,,,,,
Pharmacie _ du Corsen,48.4329878,-4.7318365,non,,,,,,
Pharmacie Du ChÃ¢teau,46.3488166,2.215273,non,,,,,,
Aprium Pharmacie d'IÃ©na,50.6234743,3.0540396,non,,,,,,
Pharmacie de la PrÃ©e,46.646938,-0.7460977,non,,,,,,
Pharmacie de la Juine,48.3613754,2.1279515,non,,,,,,
Pharmacie du Village,48.9914202,2.3747949,non,,,,,,
PHARMACIE DE BONNY,47.5605091,2.8400065,non,,,,,,
Pharmacie Baldy Mejean CrÃ©tal,43.2234143,2.3363607,non,,,,,,
Pharmacie Chartraine,49.0247173,1.1485155,non,,,,,,
Pharmacie des Pommiers,47.3394572,0.7098332,non,,,,,,
Pharmacie AgnÃ©s Darmon,48.890831,2.334632,non,,,,,,
Pharmacie de l'hÃ´tel de ville,50.4739985,3.2412068,non,,,,,,
Pharmacie de La Poste JM LACOMBLEZ,50.481885,3.0123188,non,,,,,,
Pharmacie de la Sedelle,46.2318242,1.4878962,non,,,,,,
Pharmacie de Cadours,43.7296911,1.0594324,non,,,,,,
Pharmacie des Roches,43.2716823,5.4291086,non,,,,,,
PHARMACIE LAMARE,46.2372304,1.4859002,non,,,,,,
Pharmacie des Hucherolles,47.1730897,0.2515878,non,,,,,,
Pharmacie HETTE,47.435853,-2.0898342,non,,,,,,
pharmacie des six vallees,46.4308062,0.2635493,non,,,,,,
Pharmacie Saint Pierremont,49.2844665,5.8950797,non,,,,,,
Pharmacie Croix Blanche.,49.007032,2.1971442,non,,,,,,
Brochard Pascale,47.157304,1.9975684,non,,,,,,
PHARMACIE DE LAILLY,47.7684238,1.6892883,non,,,,,,
Pharmacie de la Creule,50.73919,2.546283,non,,,,,,
Pharmacie Doulon-Gohards,47.2353019,-1.502949,non,,,,,,
Pharmacie de la grande armÃ©e totum ðŸ’Š,41.926343,8.7286158,non,,,,,,
PHARMACIE DE MARCILLY,47.764814,2.0212,non,,,,,,
PHARMACIE DU PARC,48.8260003,2.3418005,non,,,,,,
PHARMACIE DE LA FORET - NEUVY SUR BARANGEON,47.315321,2.255161,non,,,,,,
Pharmacie SAIDI,47.5194194,-1.9562928,non,,,,,,
PHARMACIE D'ARVOR,47.6706421,-2.9858863,non,,,,,,
Pharmacie de L'Europe,43.641978,3.8200202,non,,,,,,
Pharmacie Saint Jean,48.0846974,7.3663842,non,,,,,,
PHARMACIE SAINT DENIS,47.8793192,1.9527404,non,,,,,,
Pharmacie du Beuvron,47.603359,2.0252939,non,,,,,,
Pharmacie du Cours Ajaccio ðŸ’Š Totum,41.924499,8.737807,non,,,,,,
PHARMACIE RAHOU,47.2113231,-1.6159469,non,,,,,,
Pharmacie La Pharmille,49.6292958,-1.6419912,non,,,,,,
Pharmacie de La Rocade,48.6140587,7.7325123,non,,,,,,
Pharmacie de Massieux,45.9088067,4.8164162,non,,,,,,
Pharmacie Gatillon,47.1843043,0.0504077,non,,,,,,
ðŸ’Š GRANDE PHARMACIE DE LA GARE | Vincennes,48.8479558,2.4345235,non,,,,,,
Pharmacie des Cigales,43.4335142,6.7416818,non,,,,,,
Pharmacie de la Fontaine,47.892713,1.916871,non,,,,,,
PHARMACIE DU MARCHE,43.8602027,4.948558,non,,,,,,
PHARMACIE DU MARAIS - Norrent fontes,50.5854993,2.4081734,non,,,,,,
PHARMACIE ST HONORE,49.8886679,2.2881059,non,,,,,,
Pharmacie Des Capucines,48.5804478,7.6873502,non,,,,,,
Pharmacie Saint Joseph,47.600107,7.4970583,non,,,,,,
Pharmacie de l'HÃ´tel de Ville,47.6019006,2.0248744,non,,,,,,
PHARMACIE DE QUINTAOU,43.4860016,-1.5146047,non,,,,,,
Pharmacie Monier,50.4972263,3.4519371,non,,,,,,
Pharmacie Saint Aubin,43.604633,1.454051,non,,,,,,
PHARMACIE MONTAGNY,48.924354,2.274926,non,,,,,,
La Grande Pharmacie,47.2952481,-2.5129711,non,,,,,,
Pharmacie Herbert,46.6471029,-0.2514739,non,,,,,,
PHARMACIE DE MILLIANE,43.1181626,1.6147381,non,,,,,,
Pharmacie Saint Hilaire,48.323456,0.82015,non,,,,,,
Pharmacie du coeur de ville,46.9467081,-0.594645,non,,,,,,
Pharmacie Mediolanaise,50.3010582,2.7779615,non,,,,,,
PHARMACIE ABRAYSIENNE,47.9110213,1.9576265,non,,,,,,
Pharmacie du MonastÃ¨re,44.3446492,2.5802193,non,,,,,,
PHARMACIE DES HALLES,47.112913,0.6204141,non,,,,,,
Pharmacie Rochefort Audu,47.2803421,-2.2280957,non,,,,,,
Pharmacie de Fleur,47.8024121,7.1291135,non,,,,,,
PHARMACIE DE MONTFERRAT,45.4887663,5.5925494,non,,,,,,
PHARMACIE D'ISSENHEIM,47.9058841,7.2511825,non,,,,,,
GRANDE PHARMACIE DE L'UNION,42.5505968,3.0120758,non,,,,,,
Pharmacie Aubinoise,50.3502366,2.5795714,non,,,,,,
Pharmacie de l'Ã‰toile,48.3118617,1.9990755,non,,,,,,
Pharmacie Gillet,47.2356202,6.0078381,non,,,,,,
Pharmacie de la LibertÃ©,49.311658,5.7812626,non,,,,,,
Pharmacie PharmaNatura,48.989171,-1.332759,non,,,,,,
Pharmacie de la Rose,48.4959612,7.4681489,non,,,,,,
Pharmacie de Loury,48.0016027,2.0848527,non,,,,,,
Pharmacie du Pfoeller,48.6094333,7.7574437,non,,,,,,
Pharmacie Le Garo Martin,48.0589703,-1.1918865,non,,,,,,
Pharmacie de Port Grimaud,43.2742726,6.5802813,non,,,,,,
Pharmacie de l'Etape,48.407041,2.7032445,non,,,,,,
Pharmacie des 3 ÃŽles,47.2005713,-1.6687382,non,,,,,,
Pharmacie Victor Hugo,46.9838252,-0.2122128,non,,,,,,
Pharmacie Vauban,42.6987633,2.8916603,non,,,,,,
Pharmacie de Monteux,44.0336914,4.9979055,non,,,,,,
PHARMACIE ANTOINE,48.2876917,6.9493658,non,,,,,,
PHARMACIE MOURET,43.2904614,5.8657102,non,,,,,,
Pharmacie Villejuif Aragon,48.7884612,2.3661373,non,,,,,,
Pharmacie de l'Eglise,45.8211265,5.1962634,non,,,,,,
Pharmacie de l'HÃ´tel de Ville,48.6043049,7.7470131,non,,,,,,
Pharmacie Place de Rome,43.2913023,5.3803551,non,,,,,,
PHARMACIE BUSSIERE,45.719635,4.802278,non,,,,,,
Pharmacie du ThÃ©rain,49.2525325,2.4289394,non,,,,,,
Pharmacie Laurentaise/MatÃ©riel mÃ©dical,47.3146488,-0.8054171,non,,,,,,
Pharmacie de saint quay,48.6503019,-2.8309177,non,,,,,,
Pharmacie du Faubourg - MilÃ©si ðŸ’Š Totum,45.3223481,4.6159937,non,,,,,,
Pharmacie Serrure Jaspar,50.637583,3.0237809,non,,,,,,
Pharmacie du PÃ´le SantÃ©,48.446655,1.5771253,non,,,,,,
Pharmacie du Boulevard Jessuan et OcÃ©ane ROY,47.2566806,6.0212001,non,,,,,,
Pharmacie Chesneau Givelet,47.1140995,-2.0979148,non,,,,,,
Pharmacie Dufour-Sereni,48.2964829,2.2012461,non,,,,,,
PHARMACIE LECHON STRUZYK,50.3552023,2.7597387,non,,,,,,
PHARMACIE DES LILAS,46.891141,-1.2505049,non,,,,,,
Pharmacie Mont Louis,48.858315,2.3892741,non,,,,,,
PHARMACIE DES MAINES,46.947139,-1.2946799,non,,,,,,
Pharmacie du Cormier,47.2611027,-1.6634826,non,,,,,,
PHARMACIE DE LA MONNERAYE,47.4512264,-2.3154596,non,,,,,,
Pharmacie Centrale,50.2270841,2.1171417,non,,,,,,
Pharmacie du Lys,48.5639403,7.7613497,non,,,,,,
Pharmacie des TrÃ¨fles d'Or,47.5755826,7.5253225,non,,,,,,
Grande Pharmacie de Paris,50.687308,3.1749442,non,,,,,,
Pharmacie Centrale BLET FRADIN,46.9486556,1.9913323,non,,,,,,
Grande Pharmacie de Champdieu / Hello Pharmacie,45.6448338,4.0505514,non,,,,,,
Pharmacie des Danjons,47.0826757,2.3642747,non,,,,,,
Pharmacie du Centre Commercial VillabÃ©,48.58415,2.451203,non,,,,,,
Pharmacie Grenelle Tour Eiffel (Dupleix),48.8508255,2.2931454,non,,,,,,
Pharmacie de Beaumont,50.3493367,3.1472797,non,,,,,,
Pharmacie de la Galaure by MEDIPRIX / Chateauneuf de Galaure,45.2281761,4.9596357,non,,,,,,
Pharmacie de Vigny,49.0776104,1.9265053,non,,,,,,
Pharmacie de Recologne,47.2695137,5.8395214,non,,,,,,
Pharmacie du Golfe Totum,43.1719597,6.529979,non,,,,,,
PHARMACIE DE LA VILLENEUVE,46.772589,4.8932986,non,,,,,,
Pharmacie du centre,48.5386502,7.4544588,non,,,,,,
Pharmacie de FAREINS,46.0198781,4.7609978,non,,,,,,
PHARMACIE DE JOUVENCE - ST GENGOUX LE NATIONAL,46.6139593,4.6635296,non,,,,,,
Pharmacie du Las by Mediprix Toulon,43.1275077,5.9178992,non,,,,,,
Pharmacie de L'Hotel Dieu,48.118507,-1.681231,non,,,,,,
Pharmacie de l'Abbaye,50.2937,2.7748645,non,,,,,,
Pharmacie de La RiviÃ¨re,48.2876034,4.0320686,non,,,,,,
Pharmacie Alhamwi,47.4743888,6.8569559,non,,,,,,
Pharmacie du Tillay,47.2287162,-1.6049032,non,,,,,,
Pharmacie de Paris Chantilly pharmacie de garde au 3237,49.193331,2.465094,non,,,,,,
Pharmacie de La Rose,48.8294681,8.0380777,non,,,,,,
Pharmacie Dominique,47.4050573,0.6019776,non,,,,,,
PHARMACIE GUYOT,46.9777666,4.7691803,non,,,,,,
Pharmacie de la Digue,48.7125732,7.922416,non,,,,,,
PHARMACIE DES EPINETTES,48.6219921,2.4405268,non,,,,,,
Pharmacie des OlliÃ¨res,45.7576599,4.7314272,non,,,,,,
25A Rte d'Ingersheim,48.0838777,7.3456651,non,,,,,,
162 Rue du PrÃ©sident FranÃ§ois Mitterrand,48.6899389,2.2881291,non,,,,,,
Pharmacie de la Croix Blanche / HELLO PHARMACIE,46.2042816,5.2409707,non,,,,,,
Pharmacie des Chartreux Julie VANDEPUTTE,48.2734246,4.0853869,non,,,,,,
PHARMACIE DE LA GRANDE CROIX,44.356453,2.579701,non,,,,,,
PHARMACIE Carbiener Fegersheim,48.4899466,7.6785133,non,,,,,,
Pharmacie des Huiliers,46.8749756,4.9469386,non,,,,,,
Pharmacie Orain,47.1885207,-1.6826822,non,,,,,,
Pharmacie Edouard Herriot,48.2736029,4.0819416,non,,,,,,
Pharmacie de Boulieu ðŸ’Š Totum,45.271013,4.6678222,non,,,,,,
Pharmacie des Engrives / Hello Pharmacie,45.6952114,5.0214144,non,,,,,,
Pharmacie Riffard - Annonay ðŸ’Š Totum,45.2430683,4.665812,non,,,,,,
Pharmacie Du Lion,48.6375742,7.4458645,non,,,,,,
Pharmacie Martiny,47.2893781,0.781355,non,,,,,,
PHARMACIE DU CANADA,50.3529232,3.5226592,non,,,,,,
Pharmacie Lehre,46.5583449,5.0009106,non,,,,,,
Pharmacie de Lestang,43.6684513,1.50139,non,,,,,,
Pharmacie des Dames,48.7484038,6.1654283,non,,,,,,
PHARMACIE DU FORT,43.5144614,1.3237977,non,,,,,,
Pharmacie des Halles,48.2330443,4.7066495,non,,,,,,
Pharmacie Des Plages,42.5522745,3.0459552,non,,,,,,
Pharmacie Du Centre,48.4216605,7.6446634,non,,,,,,
PHARMACIE DECOU,44.8502136,0.1025652,non,,,,,,
PHARMACIE WEYERSHEIM,48.7185328,7.7991446,non,,,,,,
PHARMACIE DU SOLEIL,48.5800405,7.716271,non,,,,,,
Aprium Pharmacie Des Alberes Ã  Saint AndrÃ© 66,42.550593,2.9652166,non,,,,,,
Pharmacie Dolus d'OlÃ©ron ðŸ’Š Totum,45.911193,-1.265357,non,,,,,,
Pharmacie du MarchÃ©,48.191584,7.32422,non,,,,,,
PHARMACIE DU MAILLON,48.5927607,7.6977338,non,,,,,,
PHARMACIE BELLE CROIX,50.7125635,2.9990642,non,,,,,,
Pharmacie Des Recollets,47.1772775,3.0189254,non,,,,,,
Pharmacie du Parc well&well,48.1839866,5.8948481,non,,,,,,
Pharmacie de Balagny,49.2955749,2.3365814,non,,,,,,
PHARMACIE DU BAC,50.677576,2.845113,non,,,,,,
Pharmacie Bouvier-Pasquier Catherine,47.3758352,0.710599,non,,,,,,
pharmacie de Barjac-mediprix,44.3064378,4.3466897,non,,,,,,
Pharmacie des LumiÃ¨res Meyzieu,45.766812,5.0018029,non,,,,,,
Pharmacie Hieulle FrÃ©dÃ©ric,50.9511477,1.8923051,non,,,,,,
Pharmacie du Centre GalliÃ©ni LeadersantÃ©,48.934869,2.3325094,non,,,,,,
Pharmacie Beaujardin,47.3774508,0.7070989,non,,,,,,
Pharmacie Pierson-Vollmar,48.6227587,6.1095449,non,,,,,,
Pharmacie de Lavit Delon-DuilhÃ© : MatÃ©riel mÃ©dical-AromathÃ©rapie-PhytothÃ©rapie-Micronutrition-Dermatologie-VÃ©tÃ©rinaire.,43.9573975,0.9175975,non,,,,,,
Pharmacie du Chardon Bleu,48.6341053,6.3219306,non,,,,,,
PHARMACIE DE LA MARANDINIERE,45.4255163,4.4193451,non,,,,,,
Pharmacie Du Val d'Or Vallauris,43.5740585,7.0510872,non,,,,,,
PHARMACIE DU MARCHE,46.7944189,4.8165261,non,,,,,,
Grande Pharmacie de la Mairie,45.7629804,4.7804594,non,,,,,,
PHARMACIE DU BON ENDROIT,47.0086312,0.0887281,non,,,,,,
"Pharmacie de Neuvy, SELARL Pharmacie PINEAU",47.603895,0.594612,non,,,,,,
Pharmacie Les Mirabelles,48.5556469,6.4057198,non,,,,,,
Pharmacie le TrÃ©buchet,43.5495217,5.0341964,non,,,,,,
Pharmacie des MarÃ©chaux,48.6939433,6.1803953,non,,,,,,
PHARMACIE DU GAREL,45.6720969,4.7532556,non,,,,,,
Pharmacie du Centre Bethouart Totum,50.3808605,2.3357177,non,,,,,,
Pharmacie Joumard,49.1560741,5.8842826,non,,,,,,
PHARMACIE FALLER,48.1945787,7.320777,non,,,,,,
Pharmacie Allach-Jannot,49.2134965,5.6345617,non,,,,,,
Pharmacie de la Souffel,48.6356512,7.7408079,non,,,,,,
Pharmacie de la SÃ¨vre Totum,46.722778,-0.586706,non,,,,,,
PHARMACIE SAINT-GEORGES,45.1792014,0.7264601,non,,,,,,
Pharmacie de la Capelette Totum,43.7421311,5.0860354,non,,,,,,
Pharmacie de Bourcefranc Totum,45.846431,-1.149157,non,,,,,,
Pharmacie de Fleurie,46.191926,4.6967917,non,,,,,,
Pharmacie du Soleil,47.8856535,1.828821,non,,,,,,
PHARMACIE DES HALLES,48.5868508,7.7411962,non,,,,,,
Pharmacie de la Basilique-(PORTOISE),48.6312444,6.3022446,non,,,,,,
Pharmacie De Laguenne,45.2459042,1.7770498,non,,,,,,
Pharmacie de Jailly,49.2114504,6.1245704,non,,,,,,
ðŸ’Š Pharmacie SaintÃ©-Pharma | Totum,45.472835,4.394759,non,,,,,,
Ma Pharmacie Belcier,44.8225053,-0.5531225,non,,,,,,
Pharmacie Boivin,48.5135224,3.7396084,non,,,,,,
Pharmacie de Wesserling,47.8884236,6.9979186,non,,,,,,
Pharmacie de Saint-Pan,46.9621398,4.3121982,non,,,,,,
Pharmacie de la Loire,47.8796565,1.9567791,non,,,,,,
Pharmacie des avaloirs,48.3991936,-0.101661,non,,,,,,
PHARMACIE DE LA PREFECTURE,41.9190931,8.7369979,non,,,,,,
Pharmacie Chomedey,48.303841,4.0732638,non,,,,,,
Hello Pharmacie du CarrÃ© d'As,46.1161103,3.4142821,non,,,,,,
Pharmacie de la Croix,46.2243736,-0.1311275,non,,,,,,
Pharmacie De MÃ©ry Sur Seine,48.5109244,3.8989115,non,,,,,,
Pharmacie Leon,42.4595105,9.2073665,non,,,,,,
Pharmacie de Beton-Bazoches,48.7019895,3.244517,non,,,,,,
Pharmacie du Port,43.6990443,7.2837153,non,,,,,,
Pharmacie de Cerisiers,48.1316326,3.4873339,non,,,,,,
Pharmacie de l'Escale Blanche - Hello Pharmacie Romans - OrthopÃ©die - Micronutrition - AromathÃ©rapie,45.0485877,5.0762925,non,,,,,,
PHARMACIE DE CORENC SELAS,45.2095271,5.7601126,non,,,,,,
PHARMACIE DE CHAILLAC PHARMACIE ACKER S,46.4344131,1.298874,non,,,,,,
Pharmacie des Hirondelles,48.553536,7.689224,non,,,,,,
PHARMACIE BRUNET,50.7111241,1.6141038,non,,,,,,
Pharmacie de la Plage,42.4829972,3.128926,non,,,,,,
PHARMACIE DE LA FONTAINE,43.3613125,3.4264199,non,,,,,,
Pharmacie des Abies - MatÃ©riel mÃ©dical - OrthopÃ©die - PhytothÃ©rapie,46.6316975,-0.5766801,non,,,,,,
Pharmacie AULD ALLIANCE,47.4881328,2.4394396,non,,,,,,
Pharmacie du Bateau,50.4833931,2.4738899,non,,,,,,
Pharmacie des Flandres,50.737399,2.3014829,non,,,,,,
Pharmacie de la dhuys,49.0329031,3.4077502,non,,,,,,
Pharmacie de la Friperie,48.5599543,3.2993982,non,,,,,,
PHARMACIE DU MARCHE,46.4666679,-0.8080041,non,,,,,,
Pharmacie du Marcadieu,43.2318823,0.0834013,non,,,,,,
Pharmacie De Creney,48.3303016,4.1295619,non,,,,,,
Pharmacie Du Breuil,48.7159509,6.2668493,non,,,,,,
Pharmacie de Malay-le-Grand,48.1797915,3.3384033,non,,,,,,
PHARMACIE DE L'ORB,43.3391757,3.2106359,non,,,,,,
Pharmacie du Val St Jean St LÃ´,49.1087265,-1.0714465,non,,,,,,
Pharmacie des Buissonnets,46.5437318,-0.3145572,non,,,,,,
Pharmacie Verdin Luzy,47.6969278,3.9959699,non,,,,,,
Pharmacie des Palmiers - Saint Denis d'OlÃ©ron Totum,46.0335195,-1.3798213,non,,,,,,
PHARMACIE DES VERNES,45.6050442,4.7628276,non,,,,,,
PHARMACIE DE WASQUEHAL,50.6681608,3.1338404,non,,,,,,
La Pharmacie du 8,50.4495015,2.8432955,non,,,,,,
Pharmacie de la Barre,43.5114777,-1.5001158,non,,,,,,
Pharmacie du Couvent,47.9507019,3.8784161,non,,,,,,
Pharmacie de l'HÃ´tel de Ville,45.5257528,4.8756074,non,,,,,,
Pharmacie Saint-Gilles,49.1881387,-0.3571265,non,,,,,,
Pharmacie du ThÃ©Ã¢tre,48.4922411,3.5024718,non,,,,,,
Pharmacie de Saint Trivier de Courtes,46.4618118,5.0786252,non,,,,,,
Pharmacie du Pouldu - Morvan,47.7957544,-4.2733756,non,,,,,,
pharmacie de la halle,48.4778979,3.133138,non,,,,,,
PHARMACIE THOMAS,46.7696058,-0.6492913,non,,,,,,
Pharmacie de la Marivoise,48.5163006,2.4457348,non,,,,,,
PHARMACIE DU PALAIS,45.186879,0.720861,non,,,,,,
Pharmacie Centre Commercial Boissy 2,48.7535128,2.5031928,non,,,,,,
Pharmacie du Mont Saint Michel,48.9446959,4.3423974,non,,,,,,
Pharmacie Plein Ciel,48.5481098,2.6435493,non,,,,,,
Pharmacie de La Mer,49.3163371,-0.3570992,non,,,,,,
Pharmacie Provinoise,48.5605752,3.3011538,non,,,,,,
PHARMACIE DE LA PLACE PICARD HERBORISTERIE DES CHARTRONS,44.8552303,-0.5718543,non,,,,,,
Pharmacie Du Bourg,46.6467823,4.3704469,non,,,,,,
PHARMACIE MIRABEAU - MONTARGIS,47.9980618,2.7332297,non,,,,,,
Pharmacie d'Auvillar,44.0701371,0.8976309,non,,,,,,
Pharmacie du Passage,47.870455,-3.907333,non,,,,,,
"Pharmacie Des Sources - Pharmacie Saint-Galmier, Chamboeuf, Cuzieu",45.5854618,4.3114231,non,,,,,,
Pharmacie Centrale,48.5772394,-3.8277089,non,,,,,,
Pharmacie Lafayette Gengembre,49.4184636,2.8257009,non,,,,,,
Pharmacie Mirabeau,43.4479243,5.6842262,non,,,,,,
Pharmacie Du Faubourg,44.3555606,2.5759418,non,,,,,,
Pharmacie Coeur De Bourg,49.2869012,-0.312618,non,,,,,,
Pharmacie Herboristerie Saint HÃ©lier,48.1034147,-1.6616238,non,,,,,,
Aprium Pharmacie de Maillane,43.8333089,4.7870787,non,,,,,,
Aprium Pharmacie Cendres,43.7928938,4.834996,non,,,,,,
Pharmacie des Ecoles,43.1392823,6.2333899,non,,,,,,
62 Rue de Laval,48.1797272,-0.8906356,non,,,,,,
Pharmacie du Donjon,46.3250267,-0.4636309,non,,,,,,
Hello Pharmacie de Piolenc,44.1751783,4.7615587,non,,,,,,
Pharmacie la Touloubre - Puyricard,43.5808274,5.4231476,non,,,,,,
Pharmacie Joly,47.4802911,2.4270469,non,,,,,,
PHARMACIE DE LA PLACE THOUROTTE,49.4779223,2.8787445,non,,,,,,
Pharmacie du Cours du Nord,44.1623628,4.8768672,non,,,,,,
PHARMACIE DE L'AVENUE,44.8596647,-0.5148669,non,,,,,,
PHARMACIE ST SAUVEUR,49.315761,2.7818302,non,,,,,,
Pharmacie du thÃ©Ã¢tre,48.071158,-0.7669437,non,,,,,,
Pharmacie Pizzitola,43.5691867,6.9950119,non,,,,,,
ðŸ’Š Hellopharmacie / Grande Pharmacie de Villars,46.0023739,5.0316444,non,,,,,,
Pharmacie de l'OrÃ©e,47.2873913,-1.1879459,non,,,,,,
Pharmacie d'Amilly Antibes,47.9750846,2.7362686,non,,,,,,
Pharmacie Mathieu,47.081129,2.4068023,non,,,,,,
Pharmacie Des Parfums - ELSIE SANTE,43.6399106,6.9497993,non,,,,,,
Pharmacie de lâ€™hÃ´tel de ville,46.5978945,0.3513457,non,,,,,,
Pharmacie Du ChÃªne,49.59637,0.677632,non,,,,,,
Pharmacie de BEAUSOLEIL,43.8287191,4.3726736,non,,,,,,
Pharmacie Cuffies,49.3993807,3.3231121,non,,,,,,
Pharmacie de Jouarre,48.9264509,3.1301202,non,,,,,,
Totum Pharmacie du Centre,49.9083348,2.5118467,non,,,,,,
Pharmacie Lernould Totum,50.770714,3.0824767,non,,,,,,
Pharmacie LabarriÃ¨re Totum,48.0753665,0.300569,non,,,,,,
Pharmacie des 3 potions ðŸ’Š Totum,47.3798056,0.6909402,non,,,,,,
Pharmacie de Vert Bocage Totum,43.6474485,5.0966197,non,,,,,,
Pharmacie du Val de Sarthe,47.8917099,0.0438179,non,,,,,,
Pharmacie des Cordeliers ðŸ’Š Totum,48.9767,3.2850686,non,,,,,,
Pharmacie du Port,43.136173,5.7552142,non,,,,,,
Pharmacie Rive Gauche,47.1491783,0.2369222,non,,,,,,
PHARMACIE BEVILLON,46.7662075,-1.2343505,non,,,,,,
Pharmacie Fleur Astier,43.1482294,6.0740436,non,,,,,,
Pharmacie de la Halle de Billom Totum,45.7238121,3.3407316,non,,,,,,
Pharmacie des Ormeaux Totum,45.7401752,-0.8144554,non,,,,,,
Pharmacie du Cheval Blanc Totum,50.5737098,2.9957391,non,,,,,,
Pharmacie Deprez ðŸ’Š Totum,50.327144,3.3933941,non,,,,,,
PHARMACIE DU PROGRÃˆS I Saint-Ã‰tienne 42 / tÃ©lÃ©consultation,45.4370521,4.3890021,non,,,,,,
Pharmacie du 4 Septembre Totum,50.4320693,2.8297191,non,,,,,,
Pharmacie Sainte Barbe,43.1904193,-0.6177888,non,,,,,,
Pharmacie Brunel,43.48699,-1.5396439,non,,,,,,
Pharmacie de la FOUILLOUSE,45.500663,4.319434,non,,,,,,
PHARMACIE CENTRALE,45.2010613,5.8394675,non,,,,,,
Pharmacie de Bel Font,45.8646417,1.2377248,non,,,,,,
Pharmacie de La CotiniÃ¨re Totum,45.9194152,-1.3367481,non,,,,,,
Pharmacie de Steinbourg,48.770219,7.412806,non,,,,,,
Pharmacie Marcaggi Totum,42.1169712,8.6904114,non,,,,,,
ðŸ’Š Pharmacie Coeur de Chapelle,47.2991714,-1.5537165,non,,,,,,
Pharmacie de la Mairie - Bron Totum,45.7333987,4.9086695,non,,,,,,
Pharmacie Ã” Naturel Totum,46.37844,6.490782,non,,,,,,
Pharmacie du ThÃ©Ã¢tre-Silvie Totum,50.7507295,2.2522733,non,,,,,,
Pharmacie Gilet,47.0362377,-1.6419532,non,,,,,,
Pharmacie des Montagnes,45.6927078,0.1845471,non,,,,,,
Pharmacie de Bois-le-Roi - Charlotte Ligaire - tÃ©lÃ©consultation sans RDV,48.4690213,2.7070368,non,,,,,,
Pharmacie de la Trecey Totum,48.0012712,3.7207907,non,,,,,,
Pharmacie de Sainte Marie,47.1127513,-2.1304977,non,,,,,,
Pharmacie de CondÃ©,48.9441093,3.1289753,non,,,,,,
Pharmacie du Faubourg ðŸ’Š Totum,48.948131,3.132628,non,,,,,,
Pharmacie LÃ©a Bonnotte,48.031644,3.2962055,non,,,,,,
Pharmacie de L'Alchimie (anciennement du Parc),50.6150152,3.0168574,non,,,,,,
Pharmacie du Pont Fouchard Totum,47.2495356,-0.0900139,non,,,,,,
PHARMACIE DE L'HOTEL DE VILLE,43.477735,2.4898233,non,,,,,,
Pharmacie des Carmes,50.3818095,2.336463,non,,,,,,
pharmacie des 3 amis,45.944198,-0.5145383,non,,,,,,
Pharmacie de Montmerle,46.0808252,4.7581108,non,,,,,,
Pharmacie Jeanne d'Arc,47.1657581,0.2453661,non,,,,,,
Pharmacie du Pays de Bidache,43.4825653,-1.145715,non,,,,,,
Pharmacie de la Gare,44.3759416,4.7034945,non,,,,,,
Pharmacie Notre Dame,48.8458919,2.2374465,non,,,,,,
Pharmacie du centre Brigitte,48.8268712,1.9479906,non,,,,,,
Pharmacie des Halles / Hellopharmacie,45.723888,5.2517076,non,,,,,,
Pharmacie CadÃ¨ne,42.9349074,2.2217045,non,,,,,,
Pharmacie Marchionni,44.5042407,1.1773315,non,,,,,,
Pharmacie Lafayette Marc,49.5190205,5.3677191,non,,,,,,
Pharmacie Internationale,43.3572446,-1.7761856,non,,,,,,
Pharmacie Du Pays,48.5263591,5.8965839,non,,,,,,
Pharmacie du Panache - Nice Totum,43.7066401,7.2319639,non,,,,,,
Pharmacie Pharmavance Meudon-la-ForÃªt,48.7841616,2.2318279,non,,,,,,
Pharmacie du Ginkgo,43.6111157,5.7569916,non,,,,,,
Pharmacie De Saint Germain Laval,45.8323662,4.0148625,non,,,,,,
Pharmacie de la Barre | Dey Chebbi - Faivre,48.9667893,2.3169538,non,,,,,,
PHARMACIE BERNARD,46.370777,0.406866,non,,,,,,
Pharmacie des Iles,43.5679447,7.0734881,non,,,,,,
Pharmacie Revol,46.2568973,6.10988,non,,,,,,
Pharmacie Saint Ayoul,48.560782,3.302134,non,,,,,,
Pharmacie Valque Totum,50.270078,2.784658,non,,,,,,
Pharmacie Lafayette du Laurier,49.1185448,6.1763762,non,,,,,,
Pharmacie du ChÃªne,48.4488733,-2.0746234,non,,,,,,
PHARMACIE BEAUVAIS,47.062726,-0.940897,non,,,,,,
Pharmacie de St Georges d'OlÃ©ron Totum,45.9676915,-1.3485157,non,,,,,,
Pharmacie Thomas,48.4249395,-4.5608461,non,,,,,,
Pharmacie de la Thur,47.8608424,7.0488106,non,,,,,,
Pharmacie Lafayette de la Valdaine,44.610486,4.9344843,non,,,,,,
Pharmacie Les Couteliers Totum,45.2891175,4.1678797,non,,,,,,
Pharmacie de la Fontaine AmÃ©lie,45.2466449,5.8313655,non,,,,,,
Pharmacie Mandoraise,47.9925529,2.7190337,non,,,,,,
Pharmacie des Coteaux ðŸ’Š Totum,45.7660437,-0.7090512,non,,,,,,
PHARMACIE BOUVIER,45.7121639,4.8115343,non,,,,,,
Grande Pharmacie Lafayette La Montilienne,44.542325,4.7454789,non,,,,,,
Pharmacie Sarrail,48.3110037,4.0514026,non,,,,,,
Pharmacie MERCIER ELSIE SANTE SUD 77,48.3970511,2.9539027,non,,,,,,
Pharmacie Senequier Rouquier Totum,43.2513868,6.5339904,non,,,,,,
Pharmacie de la Vistrenque,43.8260637,4.4317024,non,,,,,,
Pharmacie de la Ferriere,47.246191,-1.588974,non,,,,,,
ðŸ’Š PHARMACIE BAURE ROMAN l Sainte-SigolÃ¨ne 43,45.243865,4.231631,non,,,,,,
Pharmacie des Trois Fontaines - Boticinal,49.038666,2.083128,non,,,,,,
Pharmacie Du Dome Totum,43.3126511,5.4018096,non,,,,,,
SupÃ©rette des Rompois,46.6869985,4.3920458,non,,,,,,
Pharmacie de l'OcÃ©an,47.7867275,-3.491226,non,,,,,,
Pharmacie Lafayette Richez,45.6180614,0.1035274,non,,,,,,
PHARMACIE DES OUDAIRIES,46.6721788,-1.4054376,non,,,,,,
pharmacie de la gare,44.2545914,4.6467263,non,,,,,,
Pharmacie Centrale Guyonnet-Hugault,46.3735435,0.4049605,non,,,,,,
Pharmacie du Centre - Morvan Carson,47.8545922,-3.8529526,non,,,,,,
PHARMACIE DES BASSINS A FLOTS,44.8658877,-0.5491755,non,,,,,,
Pharmacie de la Tour - Denise Burkhalter,44.7268811,3.8559968,non,,,,,,
Pharmacie de Puy Guillaume Totum,45.9599933,3.4739451,non,,,,,,
Pharmacie de la GÃ©e,48.0211578,0.0145692,non,,,,,,
ðŸ’Š PHARMACIE NEYRET FAURIEL | Saint-Etienne 42,45.4267205,4.4049876,non,,,,,,
Pharmacie de l'Eglise,46.5533336,4.218424,non,,,,,,
ðŸ’Š PHARMACIE DE RATARIEUX La PharmathÃ¨que | Saint Priest en Jarez 42,45.4799537,4.3570863,non,,,,,,
Pharmacie du ProgrÃ¨s Totum,45.5139757,1.2038487,non,,,,,,
Pharmacie de la Pounche,43.3324059,5.4636243,non,,,,,,
Pharmacie Aiffres Totum,46.2986925,-0.4292985,non,,,,,,
Pharmacie de Beauvallon Totum,43.2345519,5.4114054,non,,,,,,
Pharmacie Lefort,48.3149509,4.060925,non,,,,,,
Pharmacie Bel Air Totum,43.6400791,5.0577671,non,,,,,,
Pharmacie Autrement Totum,47.8292938,0.0770533,non,,,,,,
Pharmacie du Pont de Tours Totum,47.9112267,1.8792369,non,,,,,,
Pharmacie Haut Meylan Totum,45.2174838,5.7856942,non,,,,,,
Pharmacie de Coublevie Totum,45.3539578,5.6074023,non,,,,,,
Pharmacie de la Bergue Totum,46.1801763,6.2996889,non,,,,,,
Pharmacie De l'Avant Seyne,43.1116028,5.8656939,non,,,,,,
Pharmacie de Barbentane Totum,43.9014312,4.7545656,non,,,,,,
Pharmacie Troisgros Totum,43.7270859,7.4109305,non,,,,,,
Pharmacie Centrale - Bar-le-Duc Totum,48.773984,5.1598794,non,,,,,,
Pharmacie de Denguin Totum,43.3611461,-0.5038417,non,,,,,,
Pharmacie Fraxinoise ðŸ’Š Totum,43.3172473,6.4697724,non,,,,,,
PHARMACIE CANNES GRAND BLEU,43.55694,6.964485,non,,,,,,
Pharmacie du Village Totum,43.3697196,5.6330351,non,,,,,,
Pharmacie des Fontanilles Totum,43.3176652,1.9424853,non,,,,,,
Pharmacie du centre,44.5447705,4.6814158,non,,,,,,
Pharmacie du Petit Chantilly,47.2524254,-1.5939842,non,,,,,,
Pharmacie des Loges Totum,50.241979,2.659909,non,,,,,,
Pharmacie de TrÃ©muson,48.5241683,-2.8524203,non,,,,,,
Pharmacie Michel-Petit,47.5128554,6.9982875,non,,,,,,
Pharmacie Parc Champagne-Tournon Totum,45.0533593,4.8362857,non,,,,,,
PHARMACIE DU DOURON,48.6559255,-3.6309153,non,,,,,,
Pharmacie d'Hinges,50.5555628,2.6182932,non,,,,,,
PHARMACIE DE MAULE TOTUM,48.9103184,1.8490131,non,,,,,,
Pharmacie Thomas Ludres | Totum,48.6165793,6.1743655,non,,,,,,
Pharmacie 4 chemins des routes - Toulon Totum,43.146561,5.902323,non,,,,,,
Pharmacie Principale Cuers,43.2407725,6.0751413,non,,,,,,
Pharmacie TruphÃ¨me ðŸ’Š Totum,45.7610722,4.8498564,non,,,,,,
Pharmacie Barhdaoui-Journaux,48.386718,2.900401,non,,,,,,
Pharmacie des Tilleuls,48.827414,2.5413632,non,,,,,,
Pharmacie Pura Vida,50.386105,3.59902,non,,,,,,
Pharmacie de la Florane Totum,43.1394691,5.8882953,non,,,,,,
Pharmacie Schuehmacher,48.9638224,2.2983282,non,,,,,,
PHARMACIE CHEVALIER,46.8242424,-1.3561221,non,,,,,,
Pharmacie de la Mairie,43.4248583,6.7680001,non,,,,,,
PHARMACIE DES PINS,44.8660958,4.9401777,non,,,,,,
PHARMACIE DU PARC,45.5058497,4.2620885,non,,,,,,
PHARMACIE DE GETIGNE,47.0765779,-1.2395978,non,,,,,,
PHARMACIE BOUTRIN,43.4274647,3.7279697,non,,,,,,
PHARMACIE DES ALLEES,43.3606645,-1.3992855,non,,,,,,
PHARMACIE DU MONT CASSEL,50.7998985,2.4863418,non,,,,,,
PHARMACIE SAINT FERREOL,42.4858054,2.7477939,non,,,,,,
pharmacie des NÃ©vons,43.9176078,5.0566566,non,,,,,,
PHARMACIE DU GRAND MARCHE,47.458653,3.519718,non,,,,,,
PHARMACIE NOURY PEPION,47.2980538,-1.4914082,non,,,,,,
GRANDE PHARMACIE DU PROGRES,45.8922505,3.1131083,non,,,,,,
PHARMACIE MARCHAND SANDRINE,46.3542846,-1.2496897,non,,,,,,
PHARMACIE RENE DESCARTES,46.8202583,0.5446301,non,,,,,,
PHARMACIE HOUEIX,48.226411,-3.9701061,non,,,,,,
PHARMACIE PLASSE,45.7220607,4.8915592,non,,,,,,
PHARMACIE DE GLAGEON,50.0569659,4.0776629,non,,,,,,
PHARMACIE DE LA MAIRIE,48.9120973,2.3346055,non,,,,,,
PHARMACIE DES VIGNES,45.3092409,-0.9401756,non,,,,,,
PHARMACIE FEUTRIE,50.638972,2.718216,non,,,,,,
PHARMACIE DU SOLEIL,43.1908928,6.0410097,non,,,,,,
PHARMACIE DES DAMES,47.3955765,0.7695356,non,,,,,,
Pharmacie Daublon,44.2595643,4.2954057,non,,,,,,
PHARMACIE DE L'ARQUEBUSE,47.7909998,3.5665586,non,,,,,,
Pharmacie Lazzaro Totum,49.2003075,-0.2928397,non,,,,,,
PHARMACIE ESTUBLIER,43.283858,5.9715607,non,,,,,,
Pharmacie de Bords Totum,45.8963441,-0.7956055,non,,,,,,
Pharmacie de Saint Genest Malifaux,45.3404988,4.4198053,non,,,,,,
PHARMACIE DES VIGNES,44.0567139,4.8357722,non,,,,,,
Pharmacie Bockaert,45.1244274,1.7248212,non,,,,,,
PHARMACIE DE NESMY,46.5920214,-1.4017183,non,,,,,,
Pharmacie Viudes ðŸ’Š Totum,43.3108605,6.6335847,non,,,,,,
Pharmacie LaurÃ¨s chantal et pauline,44.177464,4.150896,non,,,,,,
PHARMACIE DES VERGNES,45.812551,3.128918,non,,,,,,
Pharmacie Etoubleau,45.9034334,1.5932823,non,,,,,,
PHARMACIE DES ORS,45.0368865,5.0347043,non,,,,,,
PHARMACIE CENTR'HALLES,46.9919719,-1.8184892,non,,,,,,
Pharmacie de Brunet - Toulon Totum,43.1278554,5.9641102,non,,,,,,
PHARMACIE DE CHENOVE,47.2935266,5.0097962,non,,,,,,
PHARMACIE DES 2 VALLEES,46.737861,-1.385089,non,,,,,,
Pharmacie des 4 vents,48.6420348,-3.7207711,non,,,,,,
La pharmacie d'Emmanuelle,50.3599533,3.528564,non,,,,,,
PHARMACIE DU CASTILLET,42.7028951,2.8940362,non,,,,,,
Pharmacie Des Sources,43.6828201,3.8512051,non,,,,,,
PHARMACIE DE LA BAIE,48.8033164,-3.0282871,non,,,,,,
"Pharmacie du Jeu de Ballon, FabrÃ¨gues",43.5515945,3.7772366,non,,,,,,
pharmacie des Alleux,48.3243654,-1.4281427,non,,,,,,
Pharmacie Puymirol,44.1869768,0.7961187,non,,,,,,
Aprium Pharmacie de la Poste,49.3797791,3.3281723,non,,,,,,
PHARMACIE DE VERRIERES,46.4107827,0.5925845,non,,,,,,
Pharmacie Dufau Etchegoyen,43.5026967,-1.4517734,non,,,,,,
Pharmacie de Vezenobres,44.0491987,4.1409985,non,,,,,,
Pharmacie LECLERCQ,50.0772008,2.6041682,non,,,,,,
PHARMACIE DES ALLEES,43.8877989,4.8547577,non,,,,,,
Pharmacie Victor Hugo - Cognac Totum,45.690817,-0.322255,non,,,,,,
Pharmacie de la fusÃ©e,44.9017134,5.0107302,non,,,,,,
PHARMACIE DU CHATEAU,47.1844858,-1.5594942,non,,,,,,
PHARMACIE SAINT VITAL,47.2543718,-2.0169087,non,,,,,,
Pharmacie Saint-Martin,49.886711,2.3036306,non,,,,,,
Pharmacie des Thermes Totum,48.6573875,-1.9973494,non,,,,,,
Pharmacie de Plumelec Totum,47.8372223,-2.6389356,non,,,,,,
Pharmacie Bannier Totum anciennement Guiberteau,47.9263122,1.8967495,non,,,,,,
Pharmacie de Dommartin Totum,45.8359162,4.714095,non,,,,,,
Pharmacie du Pont,44.2071968,4.0306528,non,,,,,,
PHARMACIE DE LA CATHEDRALE,47.2187177,-1.5510222,non,,,,,,
Pharmacie Fleury Totum,46.564017,3.3183638,non,,,,,,
PHARMACIE DE BRUILLE,50.454894,3.5209531,non,,,,,,
Pharmacie Vergobbi ðŸ’Š Totum,46.4297224,4.9381156,non,,,,,,
PHARMACIE DU STADE,43.6583502,1.4887041,non,,,,,,
Pharmacie des 3 Provinces Totum,45.1655323,1.5457258,non,,,,,,
PHARMACIE DU BIEN ETRE,47.2835233,2.9558372,non,,,,,,
Pharmacie des Ã‰coles - Nice Totum,43.6989603,7.2396094,non,,,,,,
Pharmacie du Bercail ðŸ’Š Totum,43.1064682,5.8594801,non,,,,,,
Pharmacie du Centre (Sobrie),51.017836,2.443177,non,,,,,,
PHARMACIE DU NIVOLET,45.5785475,5.9560867,non,,,,,,
PHARMACIE DES ARTS,49.5459904,0.9521772,non,,,,,,
PHARMACIE DE LA GARE,47.9632993,3.5131151,non,,,,,,
Pharmacie des Nestes ðŸ’Š Totum,43.0779347,0.4850004,non,,,,,,
Pharmacie d'Orgeval Totum,49.2794292,4.0218755,non,,,,,,
PHARMACIE GIPHAR DU BOCAGE,47.3236614,5.0704001,non,,,,,,
Aprium La Grande Pharmacie des Aygalades,43.353329,5.3715519,non,,,,,,
Pharmacie Tissier-Petit,48.0018748,3.7288482,non,,,,,,
Aprium Pharmacie de la Tour,43.2837622,5.3886861,non,,,,,,
Aprium Pharmacie du Bosphore,43.3714448,5.3641664,non,,,,,,
Pharmacie Guichard,43.6785877,4.4293426,non,,,,,,
Pharmacie Leneutre,47.0286214,6.5740147,non,,,,,,
LA PHARMACIE VERTE,47.787938,-3.4162631,non,,,,,,
Pharmacie du MarchÃ© Totum,43.9286317,4.99485,non,,,,,,
Pharmacie du Bourg - Nexon Totum,45.6789866,1.1870247,non,,,,,,
Pharmacie de l'Avenir Totum,43.4302657,5.0457654,non,,,,,,
Grande Pharmacie de CaudÃ©ran Totum,44.8524472,-0.6148231,non,,,,,,
Pharmacie de GÃ©nissieux,45.0813564,5.0843874,non,,,,,,
PHARMACIE LEROY SAUTIERE,50.4235923,3.5624337,non,,,,,,
Pharmacie du Faron Totum,43.1405466,5.9133752,non,,,,,,
Pharmacie de la Mer Totum,43.1032779,5.8205092,non,,,,,,
PHARMACIE NOUVELLE,48.196717,6.438286,non,,,,,,
PHARMACIE DU LYCEE,49.1520144,0.2240871,non,,,,,,
PHARMACIE CENTRALE,47.5880905,5.1854671,non,,,,,,
Pharmacie du Port Totum,43.3077887,6.6404592,non,,,,,,
Pharmacie Leone Villecroze Totum,44.1880129,5.9459909,non,,,,,,
Pharmacie de Grimaud ðŸ’Š Totum,43.2725472,6.5215982,non,,,,,,
Pharmacie Marseille Bonneveine Zenatti ðŸ’Š Totum,43.245737,5.3901984,non,,,,,,
Pharmacie de la Rothaine,48.4589415,7.2091811,non,,,,,,
Aprium Pharmacie De Saint Genies de Malgoires,43.945193,4.2250526,non,,,,,,
Pharmacie de l'HÃ´tel de Ville ðŸ’Š Totum,46.3039981,4.8330825,non,,,,,,
Pharmacie Clemenceau,46.4667794,-0.807102,non,,,,,,
Pharmacie Victor Hugo Totum,46.0385306,4.0578853,non,,,,,,
Pharmacie d'Haspres,50.2586174,3.4174598,non,,,,,,
PHARMACIE D'ACQUIGNY,49.1770077,1.1731825,non,,,,,,
PHARMACIE DE BAIRON,49.5146567,4.7701053,non,,,,,,
Pharmacie Gillot Totum,48.0821924,1.8785655,non,,,,,,
La Grande Pharmacie du Centre Commercial d'Enval,45.8889758,3.0694146,non,,,,,,
Pharmacie des Arcades,48.7349929,6.1664042,non,,,,,,
PHARMACIE DES COTEAUX,43.2744052,0.1727606,non,,,,,,
Pharmacie du centre,49.6393691,-1.6250367,non,,,,,,
Pharmacie Optic Hibert,43.3078788,2.2161729,non,,,,,,
Pharmacie Millet,49.4097191,3.5168786,non,,,,,,
PHARMACIE BOUDRIQUE,49.8574713,4.737581,non,,,,,,
Pharmacie Rosa Bonheur,48.4108532,2.7863055,non,,,,,,
PARA ET PHIE AVALLONNAISE,47.4908014,3.9110807,non,,,,,,
Pharmacie Rive Gauche Totum,43.5970307,1.427387,non,,,,,,
Pharmacie Ramberti,48.5101407,3.7261754,non,,,,,,
Pharmacie du haut ðŸ’Š Totum,46.9740423,0.698981,non,,,,,,
PHARMACIE DU LYCEE TOTUM,43.9794159,4.7864156,non,,,,,,
Pharmacie des Herbiers,46.8569771,-1.0139257,non,,,,,,
PHARMACIE DE L'ENCLAVE,44.3162167,4.9496017,non,,,,,,
Pharmacie du Drapeau Totum,46.133262,3.456238,non,,,,,,
Pharmacie Essentielle Totum,43.6704635,1.5166997,non,,,,,,
Pharmacie Petit,48.269508,3.8055111,non,,,,,,
Pharmacie de Crissey,46.8165348,4.8809583,non,,,,,,
PHARMACIE DE ST PANTALEON,45.1415279,1.442503,non,,,,,,
Pharmacie des Vignes,48.8260154,1.987693,non,,,,,,
Pharmacie COMBE DES DAMES RiviÃ¨re,45.6805943,-0.3282368,non,,,,,,
Pharmacie de Saint-RÃ©my sur Durolle Totum,45.888451,3.5915811,non,,,,,,
Pharmacie Des Charmes,45.8986727,4.8399609,non,,,,,,
PHARMACIE DU COURS,43.9284088,4.9958907,non,,,,,,
Pharmacie de BÃ©nÃ©jacq,43.1902159,-0.2100247,non,,,,,,
Pharmacie Dolicque,50.6802485,3.2475772,non,,,,,,
Pharmacie Barla,43.7012638,7.2841623,non,,,,,,
pharmacie breton eric,46.7433038,-0.9489863,non,,,,,,
PHARMACIE DE PLOMELIN,47.9363342,-4.1555692,non,,,,,,
Pharmacie Satger Apack,44.074385,5.002515,non,,,,,,
PHARMACIE DU PONT NEUF,45.8980961,6.1156118,non,,,,,,
Pharmacie Gabas Totum,43.8592968,0.1010157,non,,,,,,
Pharmacie du Champ de Mars (Dancausse-Lasbugues),44.2592738,4.6468852,non,,,,,,
Pharmacie Carnot - Herboristerie,44.559435,6.080974,non,,,,,,
Pharmacie de la Place Totum,47.986403,0.282101,non,,,,,,
Pharmacie Gamma ðŸ’Š Totum,48.8439746,2.372451,non,,,,,,
Pharmacie des Haras de Gelos,43.2831412,-0.3708701,non,,,,,,
PHARMACIE DE LA VALLEE (HELLOPHARMACIE),45.9242559,6.8699625,non,,,,,,
La Nouvelle Pharmacie,43.4532366,3.4196248,non,,,,,,
Pharmacie de la Noye,49.631995,2.2942948,non,,,,,,
Pharmacie Fabien Mauvignant,48.667182,4.2083999,non,,,,,,
Pharmacie RIBERON Arcis-Sur-Aube,48.5357903,4.1427212,non,,,,,,
Pharmacie de la Foux,43.2634122,6.580897,non,,,,,,
PHARMACIE COURDENT & PENAUD,46.6265262,-1.8565285,non,,,,,,
Pharmacie d'Auxon,48.1093919,3.9219058,non,,,,,,
PHARMACIE DE L'ALBINQUE,43.608511,2.239764,non,,,,,,
Pharmacie de Valbertrand - Toulon Totum,43.1402237,5.8937673,non,,,,,,
PHARMACIE DU LANGUEDOC ðŸ’Š TOTUM,43.6108266,1.3300926,non,,,,,,
PHARMACIE LA SERINETTE,43.1162743,5.9615994,non,,,,,,
Pharmacie de Montayral,44.483816,0.977806,non,,,,,,
Pharmacie d'Ars et Dombes,45.993204,4.8211813,non,,,,,,
PHARMACIE DE LA MURETTE,45.3801388,5.5419595,non,,,,,,
PHARMACIE DE SEREILHAC,45.7679428,1.080705,non,,,,,,
PHARMACIE DEMAILLY,50.3304929,3.5129894,non,,,,,,
Pharmacie des Peupliers,47.7368362,7.3004512,non,,,,,,
Pharmacie de l'HARMONIE,42.9642898,1.6090959,non,,,,,,
PHARMACIE DE LOYETTES,45.7742324,5.205692,non,,,,,,
Pharmacie de lâ€™UnitÃ©,43.5223574,5.4337256,non,,,,,,
Pharmacie de la PÃ©tanque Totum,43.1754377,5.6002068,non,,,,,,
Pharmacie du Stade ðŸ’Š Totum,43.3940648,4.7973598,non,,,,,,
Pharmacie Marquet (Foch) ðŸ’Š Totum,43.4076156,6.0645551,non,,,,,,
PHARMACIE ARVICE,43.6970609,6.8519337,non,,,,,,
Pharmacie LÃ©onard de Vinci (anciennement pharmacie Croix Saint-Lambert),48.4984706,-2.752881,non,,,,,,
ðŸ’Š PHARMACIE LYAUTEY l Nice 06,43.7120524,7.2827104,non,,,,,,
Pharmacie des Korrigans,47.9593477,-1.4977965,non,,,,,,
Pharmacie Lemaire,47.8098547,-1.9375244,non,,,,,,
PHARMACIE DU PONT HABITE,48.4500404,-4.2493345,non,,,,,,
Totum Pharmacie Saint Pierre,50.943621,1.8580964,non,,,,,,
Pharmacie du Bourg,48.702056,6.258827,non,,,,,,
Pharmacie Kojfer,50.475388,2.587158,non,,,,,,
PHARMACIE DE L'EUROPE,42.6834665,2.9090424,non,,,,,,
PHARMACIE DU ROND,44.0225971,1.3611726,non,,,,,,
Pharmacie du RazÃ¨s,43.1256081,2.0975155,non,,,,,,
Pharmacie d'Endoume,43.2849693,5.359915,non,,,,,,
PHARMACIE DE LA COTE,48.1083454,-1.9259864,non,,,,,,
Pharmacie des Tourelles Totum,47.89444,1.9043555,non,,,,,,
Pharmacie de l'HÃ´tel de Ville Totum,46.2751891,4.0413389,non,,,,,,
Pharmacie du Moulin,43.5608708,6.2389965,non,,,,,,
Grande Pharmacie de Marseille - Boticinal,43.2985079,5.3761082,non,,,,,,
Pharmacie du Front de mer Totum,45.623937,-1.028841,non,,,,,,
Pharmacie du Dropt Totum,44.5847185,-0.0862469,non,,,,,,
Pharmacie Husson-Labergerie,47.1771476,2.1618405,non,,,,,,
Pharmacie du ThÃ©Ã¢tre,43.7864444,5.7666006,non,,,,,,
PHARMACIE DES HAUTS DE PENFELD,48.3923245,-4.5184055,non,,,,,,
Pharmacie de l'Erdre - Totum,47.2234939,-1.55151,non,,,,,,
Pharmacie AgnÃ¨s Praden AlÃ¨s,44.1392417,4.0897099,non,,,,,,
Pharmacie de Trainou,47.9735047,2.1048502,non,,,,,,
Pharmacie du PÃ´le SantÃ© (Hello Pharmacie),45.045987,3.896547,non,,,,,,
Pharmacie Anna Schoen,47.75726,7.3254858,non,,,,,,
Pharmacie de Bonsecours,50.4622121,3.5941537,non,,,,,,
Pharmacie du Village,43.6247732,6.6977634,non,,,,,,
Pharmacie de la Neuve / HELLO PHARMACIE,46.2158273,5.2135534,non,,,,,,
Pharmacie Etchandy,48.2462802,-4.489984,non,,,,,,
PHARMACIE WILLAUME et PETIT,50.5638467,2.4808691,non,,,,,,
Pharmacie du Pont du Brusc,43.0949,5.8337836,non,,,,,,
PHARMACIE DU CINEMA - Marseille 13004,43.3001853,5.3999607,non,,,,,,
Pharmacie Le Pilon du Roi,43.3848093,5.5762817,non,,,,,,
Pharmacie Les Apothicaires Totum,43.328807,-0.3524389,non,,,,,,
PHARMACIE DU TERRAIL,43.28062,5.3690753,non,,,,,,
Pharmacie de la Source,47.50087,0.5820493,non,,,,,,
Pharmacie de Carresse ðŸ’Š Totum,43.4776943,-0.9946783,non,,,,,,
Pharmacie de l'Abbaye,49.7545717,0.3830591,non,,,,,,
5 Rue Charles Nedelec,43.4061203,4.9858362,non,,,,,,
PHARMACIE KERELIE,48.141152,-3.618272,non,,,,,,
PHARMACIE DU MARCHE,44.2114264,4.0302937,non,,,,,,
PHARMACIE BROUCQSAULT,50.210337,2.7770156,non,,,,,,
Pharmacie Meunier,47.625675,7.240891,non,,,,,,
ðŸ’Š HELLO PHARMACIE DU MORTIER,44.5227896,5.0652235,non,,,,,,
PHARMACIE DE L'UNIVERSITE,48.0204201,0.1618623,non,,,,,,
Pharmacie des Hopitaux,42.7249738,2.8870268,non,,,,,,
PHARMACIE LACOSTE,48.4497165,-4.2630074,non,,,,,,
Pharmacie MCpharma,42.6416496,2.757043,non,,,,,,
Pharmacie Flore,43.9292128,4.8754233,non,,,,,,
Pharmacie Principale ROCHE - Parapharmacie - MatÃ©riel mÃ©dicale - Pharmactiv - MONTBRISON,45.6067208,4.0646838,non,,,,,,
Grande Pharmacie de Cran-Gevrier ðŸ’ŠðŸ’‰,45.9100346,6.1120676,non,,,,,,
PHARMACIE GREGOIRE - Esquennoy,49.6541767,2.2684539,non,,,,,,
PHARMACIE BERTHON,47.3360051,5.0395929,non,,,,,,
PHARMACIE DE PIERREPLANE,43.1399109,5.7409251,non,,,,,,
PHARMACIE DU CENTRE - ANGRES,50.4100019,2.7577053,non,,,,,,
Pharmacie Saint Clair du RhÃ´ne,45.4433792,4.7681659,non,,,,,,
Pharmacie du Bourg Totum,47.950349,1.876276,non,,,,,,
Grande Pharmacie Des Recollets,45.0441124,5.0340326,non,,,,,,
Pharmacie de la Madeleine Totum,43.3023945,5.3957245,non,,,,,,
Pharmacie De La Madeleine,43.3502445,1.4710772,non,,,,,,
PHARMACIE LAMARCHE,49.0258663,-1.2844263,non,,,,,,
Pharmacie du rocher - Sibille - Mariotto,43.4568012,5.2477354,non,,,,,,
PHARMACIE DE LA POSTE,46.7447865,5.9087921,non,,,,,,
Pharmacie Bazoge-Ferran,48.1755194,0.2347461,non,,,,,,
Pharmacie Nouvelle,46.5409959,0.4156045,non,,,,,,
Pharmacie Damy Mercues,44.4957368,1.3864407,non,,,,,,
Pharmacie MCpharma Prades,42.625452,2.4275738,non,,,,,,
Pharmacie d'Hautvie,48.5901577,-0.3579002,non,,,,,,
Pharmacie du Barriot,45.818159,4.7506307,non,,,,,,
Pharmacie de Saint Didier au mont d'or,45.8119843,4.7985598,non,,,,,,
Pharmacie de lâ€™Atlantique,46.682527,-1.438341,non,,,,,,
Hello Pharmacie du Val Vert,45.7734832,4.7781139,non,,,,,,
Pharmacie de La Citadelle - SETTI Annett,45.369494,5.584434,non,,,,,,
Pharmacie Saint Roch,45.6389217,4.3920493,non,,,,,,
Pharmacie Pays de Montaigu,46.9715805,-1.3335508,non,,,,,,
Pharmacie Centrale,45.8243818,4.9535786,non,,,,,,
Pharmacie du Palais,44.9312567,4.8916153,non,,,,,,
Pharmacie Pasteur Troyes,48.3035651,4.0624674,non,,,,,,
Pharmacie de la Marie 2,43.3195276,5.4005901,non,,,,,,
Pharmacie du Cours Hellopharmacie,43.8828816,4.8544198,non,,,,,,
Pharmacie Chopin,45.165939,5.7515838,non,,,,,,
Pharmacie d'Astarac Mirande,43.5145033,0.404541,non,,,,,,
Pharmacie Abtan-HagÃ¨ge,48.7631875,2.0558537,non,,,,,,
PHARMACIE ROBINSON,44.8520229,-0.6555994,non,,,,,,
Pharmacie du Millenium,50.4712027,3.2470662,non,,,,,,
Pharmacie des Ã‰pis,48.70201,6.1976182,non,,,,,,
Pharmacie Mendelsohn Totum,43.729466,5.178516,non,,,,,,
Pharmacie Gambetta,48.8976304,2.1640132,non,,,,,,
Pharmacie de GuÃ©cÃ©lard,47.8755225,0.1269002,non,,,,,,
Pharmacie Saint-Martin,49.3943209,6.2767236,non,,,,,,
PHARMACIE LA VIOLETTE,46.5427067,-1.7703399,non,,,,,,
Hello Pharmacie du Taurobole,45.0702993,4.8369909,non,,,,,,
Pharmacie du Lion,47.8891073,7.2275874,non,,,,,,
PHARMACIE BURCET,42.4037187,2.4798233,non,,,,,,
Pharmacie des Terres Blanches,49.1776874,6.4949383,non,,,,,,
Pharmacie de Saint PryvÃ© (KAYAL),47.8829841,1.8725829,non,,,,,,
PHARMACIE DES PONTS JUMEAUX SNC,43.61569,1.42156,non,,,,,,
Pharmacie de la rive,46.8526514,-1.8932348,non,,,,,,
Pharmacie de l'Olivier,48.298905,4.0527495,non,,,,,,
Pharmacie des Visitandines,46.8878665,-1.5934709,non,,,,,,
Pharmacie de l'Ander,45.033965,3.0998117,non,,,,,,
Pharmacie Pilar Totum,43.3151433,-0.3781374,non,,,,,,
Pharmacie d'Abbaretz,47.5525739,-1.5330525,non,,,,,,
Pharmacie Henri IV,49.440734,1.0857167,non,,,,,,
PHARMACIE DE ST HERMAND,46.5543905,-1.0616383,non,,,,,,
PHARMACIE DU BOURG,46.2977496,0.1790683,non,,,,,,
PHARMACIE DES HALLES,46.2981137,0.1799364,non,,,,,,
Pharmacie Du Marche,46.5700697,0.6434299,non,,,,,,
PHARMACIE DE L'ELYSEE,50.7495335,2.243307,non,,,,,,
PHARMACIE TROUPEL,45.7265815,4.8113353,non,,,,,,
PHARMACIE DE L'HOTEL DE VILLE,48.9535478,4.3841397,non,,,,,,
PHARMACIE DES CIMES,43.4686353,-1.4460032,non,,,,,,
PHARMACIE DU GRAND ETIER,46.8610178,-1.9513017,non,,,,,,
Pharmacie du Mortier d'Or,49.2837426,1.0169755,non,,,,,,
PHARMACIE JOUE SUR ERDRE,47.4962314,-1.4193023,non,,,,,,
PHARMACIE CHAMINANT,47.2111462,-1.726404,non,,,,,,
Pharmacie Maillard,43.5043523,-1.4675189,non,,,,,,
PHARMACIE DE BERGUETTE,50.6108496,2.4774975,non,,,,,,
PHARMACIE PLAISANCE,46.5135424,-1.7895622,non,,,,,,
Pharmacie des Mimosas,43.4331174,6.7545512,non,,,,,,
Pharmacie Philippe,45.6768774,5.4704158,non,,,,,,
PHARMACIE MUTIN SELARL,43.521988,0.7630035,non,,,,,,
Pharmacie de l'Arzon Totum,45.3306985,3.8456474,non,,,,,,
PHARMACIE DES COMMEES,46.4635574,-1.1742508,non,,,,,,
PHARMACIE DU VAL DES ROSES,45.6681299,6.3827727,non,,,,,,
Pharmacie Calais CÃ´te d'Opale,50.9647574,1.8426923,non,,,,,,
Pharmacie du Louet,47.4031186,-0.5274081,non,,,,,,
PHARMACIE MIRAL FRICK,43.06344,0.1499188,non,,,,,,
Pharmacie du Pays d'Allevard,45.3754919,6.0542291,non,,,,,,
Aprium Pharmacie Centrale,43.8426585,5.0382,non,,,,,,
Pharmacie Dudal,47.6873729,1.784156,non,,,,,,
PHARMACIE CHAMPENOISE,49.0434716,3.953359,non,,,,,,
Pharmacie Grandes Carrieres,48.8934764,2.336072,non,,,,,,
PHARMACIE DU PARC,48.9434982,2.3158087,non,,,,,,
Pharmacie des 13 Vents,43.6543566,3.0448859,non,,,,,,
Pharmacie de Thivars,48.3776889,1.4494356,non,,,,,,
Pharmacie des Bastides [PourriÃ¨res],43.5033064,5.7369385,non,,,,,,
Pharmacie De Manzat,45.9623197,2.9418062,non,,,,,,
Pharmacie de la Gare,48.8745029,2.640487,non,,,,,,
PHARMACIE ZINCK,48.6483078,2.4497144,non,,,,,,
PHARMACIE D'O I Mussidan 24,45.036455,0.365735,non,,,,,,
PHARMACIE LACHAUX,45.5509105,3.372334,non,,,,,,
Pharmacie Lefebvre Gaveriaux,50.450799,3.1989766,non,,,,,,
Pharmacie de Viry,46.1171215,6.0383561,non,,,,,,
Pharmacie Cicorelli-GaufrÃ¨s,43.7332582,4.2200415,non,,,,,,
PHARMACIE DE LAGARRIGUE,43.580822,2.2758946,non,,,,,,
Pharmacie BeauprÃ©,47.6590825,-2.7302441,non,,,,,,
Pharmacie des OrgÃ¨res Totum,48.6561669,4.9685719,non,,,,,,
Pharmacie Popelard,46.480083,3.9773373,non,,,,,,
Pharmacie du Boulevard Totum,48.7721271,5.1633686,non,,,,,,
Pharmacie du Moulin,50.8332626,2.2114487,non,,,,,,
Pharmacie de l'Audomarois Totum,50.7533325,2.2584641,non,,,,,,
Pharmacie Sallanches FAVREAU,45.939827,6.6301218,non,,,,,,
Pharmacie des Lacs ðŸ’Š Totum,43.95085,-1.301119,non,,,,,,
Pharmacie Du Chatelard,46.3727119,6.4939605,non,,,,,,
Pharmacie du Port,47.2782613,-2.428399,non,,,,,,
Pharmacie Wandji ðŸ’Š Totum,50.3230993,3.3782646,non,,,,,,
Pharmacie de la Croix Blanche Bourges,47.0785139,2.3892753,non,,,,,,
Pharmacie Vulliemin,47.4920905,-0.51263,non,,,,,,
Pharmacie Porte de Belleville ðŸ’Š Totum,45.9957284,4.7189736,non,,,,,,
Pharmacie Greco,49.2914095,2.4968737,non,,,,,,
Pharmacie du MarchÃ© SELARL Mulhouse,47.7482739,7.331431,non,,,,,,
Pharmacie Centrale de Sceaux Totum,48.778585,2.2919704,non,,,,,,
Pharmacie Sendral Totum,44.0526393,4.7781197,non,,,,,,
Pharmacie BeausÃ©jour Totum,48.6537086,2.341842,non,,,,,,
PHARMACIE DES ECOLES,50.4663448,2.6737722,non,,,,,,
Pharmacie Centrale,49.5064193,2.4326873,non,,,,,,
Pharmacie de GenÃ¨ve,45.90659,6.123536,non,,,,,,
PHARMACIE DE MONT,47.562393,1.4562153,non,,,,,,
Pharmacie GRANDE OUCHE Bouguenais,47.1817036,-1.5792176,non,,,,,,
PHARMACIE PAROIS,44.1740824,5.1335052,non,,,,,,
Pharmacie Le Secq Maryline,48.7706543,-0.5731797,non,,,,,,
PHARMACIE D'ESNEVAL,49.5446657,0.9503452,non,,,,,,
Pharmacie Renard,48.8160704,2.3086,non,,,,,,
Pharmacie Angers Millot SELARL HervÃ©-Kuhn,47.4554708,-0.5349038,non,,,,,,
Pharmacie de Saint AgrÃ¨ve ðŸ’Š Totum,45.009975,4.400956,non,,,,,,
PHARMACIE DES SARTS,50.6400214,3.1007203,non,,,,,,
Pharmacie de la providence,47.3570957,-0.8587812,non,,,,,,
Pharmacie du serpent,48.3881046,-4.4901632,non,,,,,,
PHARMACIE BENSOUDA,50.6423143,3.1120403,non,,,,,,
Pharmacie de la Tour,43.3597456,2.1708114,non,,,,,,
Pharmacie Tour de l'EvÃªque,43.8272151,4.3645015,non,,,,,,
Pharmacie du Bramafan (pharmacie perdrix-daniÃ¨re),45.9022124,5.3484782,non,,,,,,
Pharmacie Du Pays Bleu - RenazÃ©,47.7945407,-1.0569024,non,,,,,,
PHARMACIE DU TERNOIS,50.382453,2.3370505,non,,,,,,
Grande Pharmacie de Mably - Hello Pharmacie,46.0654584,4.0596445,non,,,,,,
PHARMACIE LEMAITRE,49.3465222,2.6812701,non,,,,,,
PHARMACIE DU VAL DE L'ERDRE,47.5248,-1.1835605,non,,,,,,
Pharmacie de l'Espace Coty,49.4965667,0.1116087,non,,,,,,
Pharmacie d' Exincourt Catherine GRIENTI,47.5002839,6.8310006,non,,,,,,
Pharmacie de l'HÃ´tel de Ville,50.2474266,3.6388873,non,,,,,,
PHARMACIE LE BORSAT,48.80757,2.61715,non,,,,,,
Pharmacie Huc J,43.2127633,2.3535931,non,,,,,,
Pharmacie Richemont Totum,49.2757173,6.1708115,non,,,,,,
PHARMACIE DE LA CHAPELLE,46.7470613,-0.4759978,non,,,,,,
Pharmacie de la SÃ©e,48.7248916,-1.1692952,non,,,,,,
PHARMACIE DU PARC,50.6537102,3.0319735,non,,,,,,
PHARMACIE 104,50.582941,3.050652,non,,,,,,
Pharmacie des Arts (ex Pharmacie du Viguier),43.2038628,2.3297935,non,,,,,,
Pharmacie de la Grande Bastide,43.2987138,5.4360576,non,,,,,,
PHARMACIE DE CHAUDRON,47.2861102,-0.9858056,non,,,,,,
Pharmacie de l'Escall,47.1991813,-1.4995958,non,,,,,,
Pharmacie de la Place de Lenche,43.2972563,5.3660834,non,,,,,,
Pharmacie du Manoir,50.7790377,3.1154549,non,,,,,,
Pharmacie des Logissons Totum,43.582629,5.4731528,non,,,,,,
PHARMACIE DU GRANDVAUX,46.5761393,5.9548903,non,,,,,,
Pharmacie Demange,43.6340716,-1.3602476,non,,,,,,
PHARMACIE DECELLE (DE LA COMETE),48.9532449,4.3451177,non,,,,,,
Pharmacie de la CitÃ©,48.3598683,-2.6362966,non,,,,,,
Pharmacie De Navarre.,43.2967684,-0.3687909,non,,,,,,
Pharmacie Angot - Hurtier,43.8760098,5.396073,non,,,,,,
Pharmacie de GÃ©nÃ©rac ðŸ’Š Totum,43.7295119,4.3489939,non,,,,,,
PHARMACIE DE L'EGLISE,47.8320417,-3.1593795,non,,,,,,
Pharmacie de l'Ã‰pinette,50.1927132,3.2648109,non,,,,,,
Pharmacie d'AvÃ©jan,44.1221451,4.0801985,non,,,,,,
PHARMACIE MAGISTRALE,43.9827372,4.9041944,non,,,,,,
Pharmacie de La Rochelle Totum,48.7736315,5.1610735,non,,,,,,
PHARMACIE DE LA GARE,43.4958969,-1.4693701,non,,,,,,
Pharmacie des Provinces ðŸ’Š Totum,49.6268062,-1.6347256,non,,,,,,
Pharmacie de la Place Nadaud,48.865184,2.39502,non,,,,,,
Pharmacie PERON,49.3045587,-1.2444998,non,,,,,,
"GRANDE PHARMACIE DE VIZILLE - TELECONSULTATION, PRESCRIPTIONS & MATERIEL MEDICAL",45.0831395,5.7661932,non,,,,,,
Pharmacie Letourneux,47.3297488,-2.4358247,non,,,,,,
pharmacie des villes moisan,48.4942614,-2.7772337,non,,,,,,
Pharmacie de la Place,50.3735395,2.0369528,non,,,,,,
Pharmacie des Alpes,45.585513,5.266108,non,,,,,,
Pharmacie CLAVIER,47.2499211,-1.4862295,non,,,,,,
Pharmacie de Costebelle,49.0600221,7.0333752,non,,,,,,
Pharmacie La Savoyarde,45.5029767,6.0539483,non,,,,,,
Pharmacie Curutchet Totum,43.7865952,-0.9293795,non,,,,,,
Pharmacie du KM 400,46.325552,4.8393248,non,,,,,,
Grande Pharmacie Joubert - AngoulÃªme,45.6482509,0.16181,non,,,,,,
PHARMACIE DE BEAULIEU,50.7035843,3.2356761,non,,,,,,
Pharmacie de Marlhes,45.28319,4.394292,non,,,,,,
PHARMACIE GRESET,46.9031316,5.7726523,non,,,,,,
Pharmacie Tourenq,43.5691997,1.8844885,non,,,,,,
Pharmacie des Carmes Totum,44.6095454,2.027086,non,,,,,,
Pharmacie DOUSSOT,48.2537742,4.2597911,non,,,,,,
Pharmacie de Frontenay-Rohan-Rohan,46.248859,-0.5409332,non,,,,,,
PHARMACIE DES 5 BONNIERS,50.5958175,3.0782372,non,,,,,,
PHARMACIE PRINCIPALE,46.7228387,2.5030893,non,,,,,,
Pharmacie de Bellevue,45.4170835,4.3939302,non,,,,,,
Pharmacie des Jardins du Fier,45.9151396,6.0906501,non,,,,,,
Pharmacie de la GraviÃ¨re,45.7340817,4.7800709,non,,,,,,
Pharmacie de Samadet Totum,43.6341678,-0.4877889,non,,,,,,
Pharmacie d'Anjou,47.1808239,-1.1027825,non,,,,,,
Pharmacie des Arches,48.5174995,3.2404291,non,,,,,,
Pharmacie de la Place de Paris,45.7790583,4.8036379,non,,,,,,
Pharmacie Pignon,43.4795161,5.6222432,non,,,,,,
Pharmacie Dufay,47.4704808,6.8354771,non,,,,,,
Pharmacie du Grand Sud,46.2905672,4.8125536,non,,,,,,
D Docteur en Pharmacie Bazeilles,49.6784071,4.977834,non,,,,,,
Pharmacie de la gare,45.4407752,4.3977843,non,,,,,,
Pharmacie de la Metare,45.4182089,4.4176875,non,,,,,,
Pharmacie de l'UniversitÃ©,48.586225,7.763972,non,,,,,,
Pharmacie des Marronniers,43.848804,5.1146938,non,,,,,,
Pep's Pharmacie,45.4447796,4.3857953,non,,,,,,
Pharmacie Cosacienne,49.4413629,2.8799019,non,,,,,,
PHARMACIE DE LA MOLETTE,46.801492,4.419446,non,,,,,,
Pharmacie de la Capuche,45.1787949,5.7262021,non,,,,,,
Pharmacie de Commequiers,46.7615297,-1.8375834,non,,,,,,
PHARMACIE DE L'EGLISE,47.9910141,2.7097644,non,,,,,,
Pharmacie du MusÃ©e,45.5237934,4.8747184,non,,,,,,
Pharmacie Du Soleil,45.9003329,6.1238928,non,,,,,,
PHARMACIE DU SOURN,48.0429035,-2.9917007,non,,,,,,
PHARMACIE DE POLIGNY,46.8424248,5.7053872,non,,,,,,
Pharmacie RoumiguiÃ©,43.49101,0.929468,non,,,,,,
Pharmacie de ChÃ¢teau Gombert Totum,43.3521441,5.4377842,non,,,,,,
Pharmacie du pont de Bry,48.8341351,2.515286,non,,,,,,
PHARMACIE DE LA RIVE GAUCHE,48.846031,2.277956,non,,,,,,
Pharmacie Caillet - Grandvillars,47.5420604,6.9594904,non,,,,,,
Pharmacie du Petit PrÃ©,48.0874172,-1.6168751,non,,,,,,
Pharmacie Centrale Kiran Lefeuvre,43.6744985,7.18917,non,,,,,,
Pharmacie LÃ©on Blum,45.7631726,3.0999228,non,,,,,,
Pharmacie Louvre Victoire,48.8644424,2.3423548,non,,,,,,
PHARMACIE CANANZI BLANCHARD,43.1248172,6.0073659,non,,,,,,
Pharmacie Fleurs de vigne,47.8152979,3.7997681,non,,,,,,
PHIE PRINCIPALE BOUSQUET ANNIE SELA,42.97628,1.60871,non,,,,,,
PHARMACIE DE L'EPEND,47.35675,0.66314,non,,,,,,
Pharmacie Lihiouel,48.8409463,2.3040819,non,,,,,,
Pharmacie de Rugles,48.8155668,0.7018998,non,,,,,,
PHARMACIE DES VIGNES,43.566633,3.4491946,non,,,,,,
PHARMACIE FONTAINE MICHALCZAK,50.4726367,2.8676849,non,,,,,,
Pharmacie Nature & Co.,47.7852639,7.5092278,non,,,,,,
Pharmacie Arc en ciel,43.5874282,1.3507249,non,,,,,,
Pharmacie Hauteville,48.8751533,2.3509666,non,,,,,,
Pharmacie de Vignoux Sur Barangeon - TÃ©lÃ©consultation,47.2023895,2.1711275,non,,,,,,
Pharmacie Lafayette Centrale,45.985521,4.7199714,non,,,,,,
Pharmacie du Temps,46.8891544,3.4645666,non,,,,,,
PHARMACIE PARIS EIFFEL SELARL,48.8584055,2.3017871,non,,,,,,
Pharmacie Peyroux,46.9500795,1.9915308,non,,,,,,
Pharmacie Rochat Totum,43.5873288,7.1112208,non,,,,,,
Pharmacie Saint-Clair,45.7888013,4.8533831,non,,,,,,
Pharmacie de ClaviÃ¨res,44.1353082,4.0911699,non,,,,,,
Pharmacie Choux,46.6736939,5.5517872,non,,,,,,
Pharmacie du Levant,43.1152049,3.1063041,non,,,,,,
Pharmacie des Bains,46.3557139,6.1379061,non,,,,,,
ðŸ’Š Grande Pharmacie De Charonne,48.855062,2.386401,non,,,,,,
Pharmacie Du Parc,45.7999586,3.2446971,non,,,,,,
PHARMACIE GRANDE DE MODANE SELARL,45.2015995,6.6730973,non,,,,,,
Pharmacie Goffart,48.8417099,6.0689309,non,,,,,,
Pharmacie d'Ingersheim,48.0937981,7.3061765,non,,,,,,
Pharmacie de Burnhaupt Totum,47.7405603,7.150208,non,,,,,,
Pharmacie du Centre,48.4898712,-2.7924874,non,,,,,,
"Pharmacie Isigny-Le-Buat, matÃ©riel mÃ©dical, phytothÃ©rapie, orthopÃ©die",48.6200274,-1.1728566,non,,,,,,
Ma Pharmacie BergoniÃ©,44.8247122,-0.577872,non,,,,,,
Pharmacie de la Palmeraie,43.654626,6.921533,non,,,,,,
PHARMACIE LEFEBVRE TOULET KAREN,48.862,3.34121,non,,,,,,
Pharmacie des Halles,44.0425623,4.4406779,non,,,,,,
Pharmacie du ChÃ¢teau,43.2825414,5.5298815,non,,,,,,
PHARMACIE ALIX GRILLEAU,46.7331261,-1.5953001,non,,,,,,
Pharmacie Jadeau,46.4513479,-0.8049264,non,,,,,,
Pharmacie De La Morlette ðŸ’Š Totum,44.8544944,-0.5188644,non,,,,,,
ðŸ’ŠPharmacie de St-Pierre Saint-Pierre d'OlÃ©ron | Totum,45.9379175,-1.3069692,non,,,,,,
Pharmacie Liberte,48.1076349,-1.6779182,non,,,,,,
Pharmacie de Quettreville-Sur-Sienne,48.9681038,-1.4693175,non,,,,,,
Pharmacie Leneutre-Reuille,47.0286214,6.5740147,non,,,,,,
PHARMACIE POPULAIRE DU SUD,43.7064095,7.2615812,non,,,,,,
Pharmacie des Archers,49.0414984,3.9538001,non,,,,,,
Pharmacie de la Baie,47.8936561,-3.9151319,non,,,,,,
Pharmacie de la Poste,43.6998528,7.2727671,non,,,,,,
Pharmacie Michelet,43.2668286,5.395098,non,,,,,,
Pharmacie des Lices,43.6754716,4.6276632,non,,,,,,
Pharmacie de la Gavotte - Mediprix,43.3800897,5.3485048,non,,,,,,
Pharmacie du Peyron,43.7430879,7.1447907,non,,,,,,
Pharmacie de Gibbes,43.322005,5.380575,non,,,,,,
Pharmacie & Parapharmacie De Brignon,43.9929324,4.2185363,non,,,,,,
Pharmacie de Beauvoisin,43.718178,4.3239845,non,,,,,,
Pharmacie du Centre,49.1753449,-0.3229443,non,,,,,,
Pharmacie des Six Cadrans,49.2509297,4.035362,non,,,,,,
Pharmacie de la Grande PiÃ¨ce,47.0990549,2.4877492,non,,,,,,
PHARMACIE SAINT ANTOINE (HELLO PHARMACIE),44.383838,4.9937545,non,,,,,,
PHARMACIE PASTEUR,44.280989,4.74643,non,,,,,,
Pharmacie de la SaÃ´ne,45.7915872,4.8237528,non,,,,,,
PHARMACIE DE PIERRY,49.0203855,3.939964,non,,,,,,
Pharmacie FÃ©nelon,45.1818226,0.7210682,non,,,,,,
Pharmacie de Lodi Lacarelle,43.2890725,5.3876222,non,,,,,,
Pharmacie SasportÃ¨s,48.5010422,3.7813864,non,,,,,,
Pharmacie du Pic du Midi,43.2286188,0.1025171,non,,,,,,
Pharmacie Chave,43.2951316,5.3910222,non,,,,,,
ðŸ’Š PHARMACIE DE LA PLANQUETTE I La Garde 83,43.128889,6.014814,non,,,,,,
Pharmacie Duizabo,43.3281536,-0.4388947,non,,,,,,
Pharmacie de L'OcÃ©an,47.6000926,-3.1116953,non,,,,,,
Pharmacie du Cap Blanc ðŸ’Š Totum,44.934905,2.4544705,non,,,,,,
Pharmacie 3 RiviÃ¨res,46.8935778,5.0233873,non,,,,,,
Pharmacie Victor Hugo,50.6321101,3.0072155,non,,,,,,
Pharmacie Lemarquis,43.7007417,-0.2630635,non,,,,,,
Pharmacie de la Poste,43.1194377,5.8016468,non,,,,,,
Pharmacie Vallet,48.1280683,2.2524354,non,,,,,,
Pharmacie Lafayette des Platanes,43.5572783,5.4599292,non,,,,,,
Pharmacie de la Place,48.6909298,2.6095138,non,,,,,,
PHARMACIE DE COLOMARS,43.7637526,7.2221735,non,,,,,,
Pharmacie du Mont-Tilleul,49.6235458,5.1811089,non,,,,,,
Pharmacie Tran,45.6250229,-1.0265589,non,,,,,,
Pharmacie Boutot Totum,45.1622811,1.5324034,non,,,,,,
Pharmacie de l'Abbaye,43.2898798,5.3657962,non,,,,,,
Pharmacie des Allagniers By Mediprix,45.8137579,4.8951371,non,,,,,,
PHARMACIE LEHAIR,48.0917365,6.4694614,non,,,,,,
Pharmacie du Ray ( CECCALDI Lucie),43.7237906,7.2598232,non,,,,,,
Pharmacie Casanova,43.3151024,5.3724352,non,,,,,,
PHARMACIE DES CEDRES,44.8747772,4.8772085,non,,,,,,
Pharmacie des Salins,43.4146265,4.7306212,non,,,,,,
La Pharmacie de La Roche,44.5601128,5.9572278,non,,,,,,
Pharmacie de Sillery,49.1989299,4.1284475,non,,,,,,
Pharmacie de la Place Morgan,43.6400401,5.0944096,non,,,,,,
Pharmacie Cunat,48.3641762,4.3354423,non,,,,,,
Pharmacie Croix Rouge,49.2358597,4.0070391,non,,,,,,
Boyon GÃ©rard,48.5837564,5.0422081,non,,,,,,
Pharmacie de l'Eglise,43.7987292,4.428211,non,,,,,,
Pharmacie de la Mairie de Loudun,47.0104071,0.0833112,non,,,,,,
PHARMACIE SAINT LOUP,43.2829949,5.4318331,non,,,,,,
Pharmacie Maginot,48.8264674,4.9845352,non,,,,,,
Pharmacie Cayol,43.4103637,5.0303939,non,,,,,,
Pharmacie de la Boussole,46.4927532,-1.7487091,non,,,,,,
4 Pl. Jean JaurÃ¨s,42.8476287,1.605784,non,,,,,,
1515 Av. de Serre-PonÃ§on,44.465134,6.231455,non,,,,,,
161 Rue Jean Gassier,43.9617663,4.8595572,non,,,,,,
1 Rue de Saint-Amand,50.5229746,3.2822157,non,,,,,,
"Pharmacie de Bretagne,",48.5892691,-3.8148268,non,,,,,,
PHARMACIE D'HAULCHIN,50.3178443,3.4220706,non,,,,,,
Pharmacie du Verdon,43.8440792,6.2211323,non,,,,,,
Pharmacie la Courtine - Univers Pharmacie,43.928415,4.7932205,non,,,,,,
Pharmacie de la corse,43.2887097,5.360657,non,,,,,,
Pharmacie Du Pole Europe,49.5356946,5.7845811,non,,,,,,
Pharmacie de l'Ousse,43.2826346,-0.2697545,non,,,,,,
Pharmacie Vauban Totum,50.2891254,2.7583028,non,,,,,,
Pharmacie Lagoueyte,43.7551629,-1.3275292,non,,,,,,
Pharmacie EL Attar-Pons SARL,45.815948,3.7643351,non,,,,,,
Pharmacie Billancourt ðŸ’Š Totum,48.8320328,2.2377815,non,,,,,,
PHARMACIE DE LA MADELEINE SELARL,43.693759,7.243816,non,,,,,,
Pharmacie Talensac,47.2216658,-1.5592601,non,,,,,,
PHARMACIE LES PENSEES,46.9590024,-0.8917469,non,,,,,,
Pharmacie du Centre (Conseil DÃ©partemental),-12.7797037,45.2298976,non,,,,,,
PHARMACIE DES PYRENEES,43.3643204,-0.578113,non,,,,,,
PHARMACIE CENTRALE,50.1238109,3.4113042,non,,,,,,
Pharmacie MÃ©dicis,47.5839247,1.32103,non,,,,,,
Pharmacie des OrfÃ¨vres,45.9337018,4.791154,non,,,,,,
Pharmacie de la Gare,49.0455162,3.9614366,non,,,,,,
Pharmacie De Cimiez,43.7237596,7.2760526,non,,,,,,
Pharmacie d'Epagny,45.9370763,6.0909032,non,,,,,,
Pharmacie du Port,43.2717904,6.6392207,non,,,,,,
Pharmacie de la Neuville en Hez,49.405141,2.321416,non,,,,,,
Pharmacie La BoÃ©tie,44.889096,1.215863,non,,,,,,
Pharmacie des Sources,48.7512813,2.2900033,non,,,,,,
Pharmacie de Champagne au Mont d'Or,45.7958827,4.7917791,non,,,,,,
Pharmacie Casejuane,48.8397645,2.3015947,non,,,,,,
Pharmacie de Reyrieux,45.9350443,4.8234427,non,,,,,,
ðŸ’Š ðŸŒ¿ Pharmacie AlÃ©sienne - Herboristerie,44.1247223,4.0864572,non,,,,,,
PHARMACIE TEMPREMANT,50.764032,3.005405,non,,,,,,
"Pharmacie Centrale / SpÃ©cialiste micronutrition, homÃ©opathie, phyto et aromathÃ©rapie",42.5462195,3.0235255,non,,,,,,
PHARMACIE DE SARGE LES LE MANS,48.0342707,0.2404379,non,,,,,,
PHARMACIE GRANDE PORTE,48.4896279,-2.7371378,non,,,,,,
Pharmacie du Boulevard,50.6107701,3.0131681,non,,,,,,
Pharmacie Cardabelle,43.9571978,2.8782105,non,,,,,,
Pharmacie BrÃ©court,49.6543923,-1.6728319,non,,,,,,
Pharmacie LOMBARDI,48.5195717,2.640894,non,,,,,,
Pharmacie du Parc,43.2517042,2.6520254,non,,,,,,
Pharmacie Lepesme,48.6833622,2.9570583,non,,,,,,
Pharmacie Centrale,44.0384568,1.1079241,non,,,,,,
PHARMACIE DES JUSTICES,47.4528699,-0.5259316,non,,,,,,
PHARMACIE SOHIER,49.24252,0.69683,non,,,,,,
Pharmacie Atout Sud,47.1930267,-1.5727732,non,,,,,,
Pharmacie des Yoles,14.6553817,-60.9324659,non,,,,,,
Pharmacie du Champ de Ville,49.2106159,1.1664709,non,,,,,,
PHARMACIE DE PROVENCE,46.5891454,0.3570215,non,,,,,,
Pharmacie de Guyenne,44.8388683,0.2186256,non,,,,,,
Pharmacie Facq,49.2624579,2.4360034,non,,,,,,
Pharmacie St Laurent,47.9891504,-4.0984386,non,,,,,,
Pharmacie de la Gare,47.5905971,7.5583563,non,,,,,,
PHARMACIE DU MARTROY,49.341762,3.534641,non,,,,,,
PHARMACIE DE GUEMENE,48.0631238,-3.2076578,non,,,,,,
Pharmacie de l'Ormeau,44.7525174,-0.5319057,non,,,,,,
Pharmacie 229 Prado - Ma pharmacie,43.2756247,5.3899818,non,,,,,,
Pharmacie d'Idron,43.2985321,-0.3055982,non,,,,,,
Pharmacie des PrÃ©sidents,46.4889837,-1.7673736,non,,,,,,
Pharmacie Du Camas,43.2968166,5.3945493,non,,,,,,
pharmacie-saintdomineuc,48.3734165,-1.8767933,non,,,,,,
Pharmacie les Portes de la Mer,43.6839466,4.1536419,non,,,,,,
Pharmacie de Bois Lemaitre,43.3204827,5.4318898,non,,,,,,
Pharmacie du Canigou,42.7143051,2.842777,non,,,,,,
Pharmacie de Malassan,43.2477573,2.9186461,non,,,,,,
Pharmacie DE SLOOVERE,50.185091,3.4144634,non,,,,,,
Pharmacie Flores,43.3837248,5.1591615,non,,,,,,
Pharmacie del Sol,43.7151017,7.2812821,non,,,,,,
Pharmacie de Flassans,43.3702594,6.2239884,non,,,,,,
Pharmacie BOOTH,43.2958884,5.4443014,non,,,,,,
Pharmacie de L'Aiguillon sur Mer,46.3336356,-1.308904,non,,,,,,
Pharmacie du Mignon MauzÃ©,46.1958877,-0.6711528,non,,,,,,
Pharmacie du Stade,46.7029592,4.9839817,non,,,,,,
Pharmacie Haudebourg Libeau,46.9154768,-2.0433252,non,,,,,,
Pharmacie Kergroix,47.8096522,-3.2622438,non,,,,,,
Pharmacie Saint Victor SELARL,43.2888158,5.3663432,non,,,,,,
Pharmacie du Pin Vert,43.3012689,5.5697138,non,,,,,,
PHARMACIE MEZERETTE,47.6980794,-1.8684857,non,,,,,,
PHARMACIE DU LUY,43.3684357,-0.3488377,non,,,,,,
Pharmacie Du MarchÃ©,48.6366951,7.4477029,non,,,,,,
Pharmacie Do,42.6946627,2.9088638,non,,,,,,
Pharmacie de L'Europe,45.6672683,4.899108,non,,,,,,
Pharmacie de la Pauline,43.2723194,5.4112125,non,,,,,,
Grande pharmacie de Saint Antoine,43.3710303,5.3564241,non,,,,,,
Pharmacie des Landes,43.639977,1.46618,non,,,,,,
PHARMACIE BERNARD-LERIVEREND,48.169776,0.4163236,non,,,,,,
PHARMACIE DE SOUCHEZ MEDIPRIX,50.3882556,2.7426817,non,,,,,,
Pharmacie Blin VSF,49.1984919,2.4964905,non,,,,,,
Pharmacie Des Amis,43.2462325,5.4131673,non,,,,,,
PHARMACIE LIEUTAUD A.L.M.,43.291045,5.38326,non,,,,,,
Pharmacie Lafayette de la Bocca,43.5493249,6.9792411,non,,,,,,
Pharmacie de Chens,46.3274169,6.2676647,non,,,,,,
Pharmacie du MusÃ©e,49.2149969,1.168863,non,,,,,,
Pharmacie LE RAY MANCERON,47.8055124,-3.2774657,non,,,,,,
Pharmacie du Rove,43.3684718,5.2516972,non,,,,,,
Pharmacie de la Claire - TÃ©lÃ©consultation MÃ©decin,45.9872811,4.7096512,non,,,,,,
Pharmacie Lefaure,48.1932915,6.378603,non,,,,,,
Pharmacie de Costebelle Totum,43.1092764,6.1221658,non,,,,,,
Pharmacie de Thoiry,48.8662284,1.7913276,non,,,,,,
PHARMACIE DU PLANESTEL,43.5235338,6.8112613,non,,,,,,
Pharmacie Treich,49.1785277,-0.2705632,non,,,,,,
Pharmacie Senez,49.375957,2.452959,non,,,,,,
70 Rue LÃ©on Frot,48.8570216,2.3853515,non,,,,,,
190 Rue des Charnelles,48.9622604,1.897408,non,,,,,,
Pharmacie de la plaine,43.8211251,7.1893471,non,,,,,,
Pharmacie Thermale,46.7865363,0.8115185,non,,,,,,
Pharmacie Linglart,50.3701023,3.0746321,non,,,,,,
Pharmacie de la LibertÃ©,51.0332324,2.3312178,non,,,,,,
6-8 Pl. de la LibertÃ©,51.0332324,2.3312178,non,,,,,,
Pharmacie du Centre de Vineuil,47.5813831,1.378067,non,,,,,,
Pharmacie Beatrice,43.6972769,0.0835273,non,,,,,,
21 Bd Louis Charles Delescluze,43.1372332,5.9059084,non,,,,,,
Pharmacie La Marinade,42.7741549,2.9931242,non,,,,,,
Pharmacie de Saint Hilaire,45.847528,-0.5327725,non,,,,,,
Pharmacie Daheron / MatÃ©riel mÃ©dical / Borne de tÃ©lÃ©consultation,46.7962044,-1.9011558,non,,,,,,
Pharmacie De SÃ¨vres,47.1861956,-1.5271535,non,,,,,,
Pharmacie du Javelot,48.8252973,2.3654951,non,,,,,,
Pharmacie Alphonse Daudet,43.698385,4.2799912,non,,,,,,
PHARMACIE DE LA PASSERELLE,48.6998147,2.3191047,non,,,,,,
Pharmacie des Stades ðŸ’Š Totum,43.1055975,-0.0615667,non,,,,,,
Ma Pharmacie Brignais (Barral) ðŸ’Š Totum,45.6746906,4.7557496,non,,,,,,
PHARMACIE BORELY,43.2541456,5.3840779,non,,,,,,
Pharmacie de l'Ic,48.5705695,-2.8185058,non,,,,,,
Pharmacie de la SapiniÃ¨re,48.6921107,6.1279619,non,,,,,,
PHARMACIE GALIAY HOF,42.728075,2.9825638,non,,,,,,
Pharmacie de la Tour Marine,43.1177052,5.799887,non,,,,,,
Pharmacie Des Olivettes,43.5000621,3.3199889,non,,,,,,
PHARMACIE DU CORMIER,48.2596549,-1.3996553,non,,,,,,
Pharmacie de Lanta,43.5612894,1.6560438,non,,,,,,
PHARMACIE DE LA CHAMBERTE,43.6084488,3.8478989,non,,,,,,
PHARMACIE DU CENTRE,46.6947381,-1.055635,non,,,,,,
PHARMACIE DE LA REPUBLIQUE,49.6137707,3.2195472,non,,,,,,
Pharmacie Aprium AlÃ©sia Plaisance - Paris 14,48.8319558,2.3139593,non,,,,,,
PHARMACIE D'ANNAPPES,50.6261801,3.1496232,non,,,,,,
PHARMACIE DU GRIFFE,43.5418907,3.4600326,non,,,,,,
Pharmacie Gandon-jouet Selarl,48.5165232,3.7260565,non,,,,,,
Pharmacie Couprie - BRIZAMBOURG,45.822402,-0.481669,non,,,,,,
CC Carrefour,43.6427435,3.9422686,non,,,,,,
Pharmacie de BÃ©hobie,43.3454621,-1.7622476,non,,,,,,
PHARMACIE DE MONTCHAT - Lyon 69003,45.7535275,4.8897372,non,,,,,,
Pharmacie de Brains,47.1712733,-1.718657,non,,,,,,
PHARMACIE BEAUSOLEIL,46.9892266,-0.2326547,non,,,,,,
PHARMACIE DU TONKIN,43.3142525,-0.3848094,non,,,,,,
PHARMACIE DE L'ECHAT,48.7965765,2.4483134,non,,,,,,
Pharmacie de Milly,46.3932756,6.603953,non,,,,,,
PHARMACIE BLIN,47.6237235,-1.4516045,non,,,,,,
PHARMACIE DU GAVE,43.1687793,-0.2314377,non,,,,,,
Pharmacie Des Charmettes,45.2263519,5.6866551,non,,,,,,
Pharmacie Fuentes,44.8425377,0.3828237,non,,,,,,
Pharmacie du Chien blanc,50.4781972,2.5442561,non,,,,,,
Pharmacie Sud by MÃ©diprix - Tournon sur RhÃ´ne,45.0585137,4.8414868,non,,,,,,
Pharmacie d Azille,43.2776204,2.6605918,non,,,,,,
Pharmacie de Fitz James Totum,49.3946326,2.418945,non,,,,,,
Pharmacie de Champcevinel,45.1986199,0.7266493,non,,,,,,
Pharmacie de Poey ðŸ’Š Totum,43.3529307,-0.4694044,non,,,,,,
7 Pl. du 14 Juillet,44.3011133,0.3385393,non,,,,,,
Pharmacie Du HÃ©risson,43.3484799,6.1754108,non,,,,,,
PHARMACIE DES BARQUES,45.9488702,-1.0772604,non,,,,,,
PHARMACIE RAUTURIER,43.6321272,3.907431,non,,,,,,
Pharmacie d'Assas,43.6186,3.859795,non,,,,,,
PHARMACIE TERNAUX,50.3228626,2.6997273,non,,,,,,
PHARMACIE LEDOUX,50.3260821,2.9803139,non,,,,,,
Pharmacie de l'OcÃ©an,46.4171488,-1.5768655,non,,,,,,
PHARMACIE SAINT ETIENNE,44.2895803,4.101703,non,,,,,,
PHARMACIE DU CLINQUET,50.7266802,3.1277532,non,,,,,,
Pharmacie Du Sud Est,49.1175012,6.2315061,non,,,,,,
Pharmacie du Vignoble,44.8743765,0.2534672,non,,,,,,
Aprium Pharmacie de la Petite Arche,47.4269564,0.6991155,non,,,,,,
3 Rue des PÃ©licans,43.6066954,3.8990112,non,,,,,,
PHARMACIE DE QUERQUEVILLE,49.664948,-1.6881586,non,,,,,,
Pharmacie du Marquisat ðŸ’Š Totum,43.1843919,0.0154882,non,,,,,,
Pharmacie Regionale,45.9799619,4.7352088,non,,,,,,
Pharmacie de l'HÃ´tel de Ville,43.9559296,4.9299418,non,,,,,,
35 Av. du Foulon,43.9656043,6.6678998,non,,,,,,
Pharmacie Luquet,43.685506,7.2026288,non,,,,,,
Pharmacie de Provence,43.4278671,6.7445451,non,,,,,,
Pharmacie La Buissonne,44.0092676,5.0516373,non,,,,,,
Pharmacie de Carnoules,43.2994892,6.182527,non,,,,,,
Pharmacie Notre Dame,43.7039634,7.2681099,non,,,,,,
Pharmacie et PrÃ©paratoire FRANCEPREP,43.3602297,5.3306493,non,,,,,,
Pharmacie Cap Dramont,43.4188251,6.8499007,non,,,,,,
Pharmacie du Rouret,43.6735711,7.0026489,non,,,,,,
Grande Pharmacie de l'Ouest Lyonnais,45.7565448,4.7980931,non,,,,,,
Pharmacie de la Bricarde,43.3678973,5.3465148,non,,,,,,
Pharmacie Paradis,43.2772083,5.3834979,non,,,,,,
PHARMACIE LAVILLE,50.5700694,3.054916,non,,,,,,
Pharmacie de CÃ©reste,43.8570556,5.5879463,non,,,,,,
Pharmacie Galan SNC,42.5729592,2.9619109,non,,,,,,
Pharmacie des Collines ðŸ’Š Totum,43.7134324,7.250006,non,,,,,,
PHARMACIE GENSANE,43.5820425,1.4256281,non,,,,,,
Pharmacie du Grand Vallon,44.3435729,6.0283103,non,,,,,,
Pharmacie Weber,43.810332,7.3149796,non,,,,,,
Pharmacie des ormeaux,43.6499662,6.7930605,non,,,,,,
PHARMACIE DE LERINS,43.5437222,7.0381791,non,,,,,,
Pharmacie Jean MÃ©decin de Garde la Nuit,43.7014532,7.2697172,non,,,,,,
PHARMACIE DE LA PLACE,43.1092868,0.7260689,non,,,,,,
Pharmacie Bonne Fontaine,43.9598372,5.7815686,non,,,,,,
Pharmacie du Patrimoine,43.1532825,6.0699962,non,,,,,,
PHARMACIE DE LA BAIE,47.520775,-3.1302682,non,,,,,,
Pharmacie Seguy,43.742215,7.4241338,non,,,,,,
Grande Pharmacie de l'Horloge,43.718543,7.252685,non,,,,,,
Pharmacie Naturel Concept,45.7767744,3.0791847,non,,,,,,
Pharmacie Lothaire,49.1005731,6.1820915,non,,,,,,
Pharmacie Saint-Pierre Marignane Totum,43.409959,5.205735,non,,,,,,
Pharmacie d'Estivareilles,46.4259044,2.6144024,non,,,,,,
Pharmacie de la Gare,49.3846016,2.415152,non,,,,,,
Pharmacie - Herboristerie des Quatre Chemins,43.6448149,6.9400798,non,,,,,,
Pharmacie des Marronniers,43.0550409,2.2140743,non,,,,,,
Pharmacie Saint Roch,44.1893493,5.0069647,non,,,,,,
PHARMACIE DE L'EUROPE,48.8226818,2.5510822,non,,,,,,
Pharmacie Saint Martin,43.6106219,6.9783225,non,,,,,,
62 Bd Gambetta,43.7015577,7.2565163,non,,,,,,
"Pharmacie Avenue de Castres, Selarl Gaussin-Cosset",43.6009119,1.4754996,non,,,,,,
PHARMACIE PRES D'ARENES,43.5875734,3.8882929,non,,,,,,
AllÃ©e George Sand,43.6929032,7.1835138,non,,,,,,
PHARMACIE DE VIVIERS,43.554191,2.1755212,non,,,,,,
Grande Pharmacie de Golbey - Boticinal,48.191581,6.4199897,non,,,,,,
Grande pharmacie de Cessole,43.7218177,7.2510747,non,,,,,,
Pharmacie France Saint-Louis,47.6052627,7.5415644,non,,,,,,
PHARMACIE DES PLAGES l Larmor-Plage 56,47.706658,-3.383757,non,,,,,,
115-123,43.1238202,5.9494961,non,,,,,,
Pharmacie des Senteurs,44.0422131,6.125747,non,,,,,,
Pharmacie du Mas,44.4093799,0.2175534,non,,,,,,
Pharmacie FAIPOT,49.112857,6.1573447,non,,,,,,
Pharmacie du Mont de Sable,50.3760829,3.4981075,non,,,,,,
PHARMACIE EMMANUEL LECLERCQ,50.4268738,3.1816675,non,,,,,,
Pharmacie de l'Avenue,43.1351214,5.9162434,non,,,,,,
Pharmacie VITTINI - TÃ©lÃ©consultation MÃ©decin,43.119179,5.9413994,non,,,,,,
Pharmacie Rives Serasse,43.2586625,2.4159086,non,,,,,,
Pharmacie de l'Aubetin,48.7019895,3.244517,non,,,,,,
Pharmacie provenÃ§ale,43.1670124,6.0426551,non,,,,,,
Pharmacie de Quincy-Voisins,48.8994895,2.8746355,non,,,,,,
Pharmacie du Faubourg Narbonne,43.186685,3.0111322,non,,,,,,
Pharmacie du Chalet,48.4618715,-2.501064,non,,,,,,
Pharmacie de la Voie d'O,43.6625928,4.0101329,non,,,,,,
Pharmacie Saint-Roch Hurtado,43.1295187,5.9205977,non,,,,,,
PHARMACIE DE LA LOGNE,46.9663221,-1.5766869,non,,,,,,
Pharmacie de Cerisy-la-ForÃªt - Amaury HUMBERT,49.193464,-0.936649,non,,,,,,
